,UID,address,category,city,courses,coverPhoto,customCategory,dataOrigin,dateAdded,description,email,facebook,facebookID,logo,mapblock,mobile,organization,perioxi,phone,place,profilePhoto,rensponsible,school,slugCategories,slugSubcategories,subcategory,toPublish,type,userID,verified,website,yearCreated,zipcode
0,1620,,Πολεμικές τέχνες,Αθήνα,,,,polemikes-texnes.gr,,, info@zencenterathens.gr,www.facebook.com/zencenterathens,zencenterathens,https://www.polemikes-tehnes.gr/pics/logos/b/2014818193149708.jpg,,,,ΠλατείαΑγ.Ειρήνης,,,,,ZEN CENTER ATHENS,polemikes-texnes,aikido,Aikido,YES,,,NO,http://www.zencenterathens.com,,
1,635,,Πολεμικές τέχνες,Αθήνα,,,,polemikes-texnes.gr,,, ikardiatoupolemisti239@yahoo.gr,www.facebook.com/yubukaidojo/,yubukaidojo,https://www.polemikes-tehnes.gr/pics/logos/b/2017821225551496.jpg,,,,Αιγάλεω,,,,,KARATE ΑΙΓΑΛΕΩ - Η ΚΑΡΔΙΑ ΤΟΥ ΠΟΛΕΜΙΣΤΗ,polemikes-texnes,karate,Karate,YES,,,NO,www.lemonbook.gr/site.php?store=TJbGLaLT5jDrZYGgRqUmyNyn&language=EL,,
2,1147,,Πολεμικές τέχνες,Αθήνα,,,,polemikes-texnes.gr,,, sifuvasilakis@yahoo.gr,www.facebook.com/yingjowpaigreece,yingjowpaigreece,https://www.polemikes-tehnes.gr/pics/logos/b/201497184840520.jpg,,,,Κερατσίνι-Αμφιάλη,,,,,NORTHERN EAGLE CLAW KUNG FU – GREGORY VASILAKIS,polemikes-texnes,kung-fu,Kung Fu,YES,,,NO,www.yingjowpai.gr,,
3,973,,Πολεμικές τέχνες,Αθήνα,,,,polemikes-texnes.gr,,, katsivass@yahoo.gr,www.facebook.com/Ying.Jow.Pai.Ilioupoli/,Ying.Jow.Pai.Ilioupoli,https://www.polemikes-tehnes.gr/pics/logos/b/2017612152913986.jpg,,,,Ηλιούπολη,,,,,YING JOW PAI ΗΛΙΟΥΠΟΛΗΣ,polemikes-texnes,kung-fu,Kung Fu,YES,,,NO,www.yingjowpailioupoli.gr/,,
4,1408,,Πολεμικές τέχνες,Αθήνα,,,,polemikes-texnes.gr,,, ,www.facebook.com/wuyongchunquan/timeline,wuyongchunquan,https://www.polemikes-tehnes.gr/pics/logos/b/20179209243939.jpg,,,,ΝέαΦιλαδέλφεια,,,,,Wu Yongchunquan Academy-Foshan WingChun,polemikes-texnes,kung-fu,Kung Fu,YES,,,NO,wushu4u.com/,,
5,712,,Πολεμικές τέχνες,Αθήνα,,,,polemikes-texnes.gr,,, ,www.facebook.com/WingChunKungFuPBrebos/timeline,WingChunKungFuPBrebos,https://www.polemikes-tehnes.gr/pics/logos/b/201582312051395.jpg,,,,ΆνωΛιόσια,,,,,WING CHUN KUNG FU - BREBOS,polemikes-texnes,kung-fu,Kung Fu,YES,,,NO,www.wingchunkf.gr,,
6,1047,,Πολεμικές τέχνες,Αθήνα,,,,polemikes-texnes.gr,,, tzanos_world@hotmail.com,www.facebook.com/TzanosKarateAcademyChalandri/,TzanosKarateAcademyChalandri,https://www.polemikes-tehnes.gr/pics/logos/b/2017827103350926.png,,,,Κ.Χαλάνδρι,,,,,TZANOS KARATE ACADEMY,polemikes-texnes,karate,Karate,YES,,,NO,www.karatechalandri.gr/,,
7,1316,,Πολεμικές τέχνες,Αθήνα,,,,polemikes-texnes.gr,,, tokaidogr@gmail.com,www.facebook.com/tokaidogr,tokaidogr,https://www.polemikes-tehnes.gr/pics/logos/b/201389161436679.jpg,,,,Μοναστηράκι,,,,,AIKIDO DOJO TOKAIDO,polemikes-texnes,aikido,Aikido,YES,,,NO,www.tokaido.gr/,,
8,1403,,Πολεμικές τέχνες,Αθήνα,,,,polemikes-texnes.gr,,, lydiatilli@hotmail.com,www.facebook.com/TaiChiChuanNSmyrnis,TaiChiChuanNSmyrnis,https://www.polemikes-tehnes.gr/pics/logos/b/2013913165615296.JPG,,,,ΝέαΣμύρνη,,,,,TAI CHI CHUAN ΝΕΑΣ ΣΜΥΡΝΗΣ,polemikes-texnes,kung-fu,Kung Fu,YES,,,NO,www.taichi.gr/index.php,,
9,1421,,Πολεμικές τέχνες,Αθήνα,,,,polemikes-texnes.gr,,, taichiathens@gmail.com,www.facebook.com/TaiChiChuanAthens,TaiChiChuanAthens,https://www.polemikes-tehnes.gr/pics/logos/b/2015822124613338.jpg,,,,ΝέοΗράκλειο,,,,,Α.Σ. ΤΑΪ ΤΣΙ ΤΣΟΥΑΝ ΑΘΗΝΑΣ,polemikes-texnes,kung-fu,Kung Fu,YES,,,NO,taichiathens.gr,,
10,1224,,Πολεμικές τέχνες,Αθήνα,,,,polemikes-texnes.gr,,, streetdefenceclub@gmail.com,www.facebook.com/streetdefenceclub/,streetdefenceclub,https://www.polemikes-tehnes.gr/pics/logos/b/201681412194297.jpg,,,,Λαμπρινή,,,,,STREET DEFENCE CLUB,polemikes-texnes,self-defense,Self-Defense,YES,,,NO,www.streetdefenceclub.com,,
11,1597,,Πολεμικές τέχνες,Αθήνα,,,,polemikes-texnes.gr,,, shitoryugreece@gmail.com ,www.facebook.com/shitoryuyoshukandojo?fref=ts,shitoryuyoshukandojo,https://www.polemikes-tehnes.gr/pics/logos/b/2018015125715591.jpg,,,,Περιστέρι,,,,,SHITOKAI GREECE,polemikes-texnes,karate,Karate,YES,,,NO,shitoryugreece.com,,
12,847,,Πολεμικές τέχνες,Αθήνα,,,,polemikes-texnes.gr,,, info@polemikestexneszervas.gr,www.facebook.com/polemikestexneszervas/,polemikestexneszervas,https://www.polemikes-tehnes.gr/pics/logos/b/201782811112323.jpg,,,,ΓλυκάΝερά,,,,,ΚΕΝΤΡΟ ΜΑΧΗΤΙΚΩΝ ΤΕΧΝΩΝ ΤΑΣΟΣ ΖΕΡΒΑΣ,polemikes-texnes,tae-kwon-do,Tae Kwon Do,YES,,,NO,polemikestexneszervas.gr/,,
13,1409,,Πολεμικές τέχνες,Αθήνα,,,,polemikes-texnes.gr,,, info@pmahellas.com,www.facebook.com/pmahellas,pmahellas,https://www.polemikes-tehnes.gr/pics/logos/b/2014112419159216.jpg,,,,ΝέαΦιλαδέλφεια,,,,,ΑΚΑΔΗΜΙΑ ΕΞΕΛΙΓΜΕΝΩΝ ΜΑΧΗΤΙΚΩΝ ΤΕΧΝΩΝ,polemikes-texnes,mma,MMA,YES,,,NO,pmahellas.com/,,
14,1549,,Πολεμικές τέχνες,Αθήνα,,,,polemikes-texnes.gr,,, ianastasiou@biol.uoa.gr ,www.facebook.com/PiraeusEagleClaw/ ,PiraeusEagleClaw,https://www.polemikes-tehnes.gr/pics/logos/b/201781213925851.jpg,,,,Πειραιάς,,,,,ΠΟΛΙΤΙΣΤΙΚΟ ΚΕΝΤΡΟ INTERCHINA ΠΕΙΡΑΙΑ,polemikes-texnes,kung-fu,Kung Fu,YES,,,NO,www.eagleclaw.gr,,
15,1547,,Πολεμικές τέχνες,Αθήνα,,,,polemikes-texnes.gr,,, stavrosstof@gmail.com,www.facebook.com/piraeuscolosseum.arena/timeline,piraeuscolosseum.arena,https://www.polemikes-tehnes.gr/pics/logos/b/2015814134455842.jpg,,,,Πειραιάς,,,,,COLOSSEUM FIGHTING ARENA ΠΕΙΡΑΙΑΣ,polemikes-texnes,mma,MMA,YES,,,NO,,,
16,1318,,Πολεμικές τέχνες,Αθήνα,,,,polemikes-texnes.gr,,, yvasilakos@gmail.com,www.facebook.com/MonastirakiDojo,MonastirakiDojo,https://www.polemikes-tehnes.gr/pics/logos/b/2014818123725426.jpg,,,,Μοναστηράκι,,,,,ΜΟΝΑΣΤΗΡΑΚΙ DOJO,polemikes-texnes,aikido,Aikido,YES,,,NO,www.monastirakidojo.com/,,
17,1433,,Πολεμικές τέχνες,Αθήνα,,,,polemikes-texnes.gr,,, hfoundationma@gmail.com,www.facebook.com/MartialArtsFoundation,MartialArtsFoundation,https://www.polemikes-tehnes.gr/pics/logos/b/2014818135637986.jpg,,,,ΝέοΨυχικό,,,,,MARTIAL ARTS FOUNDATION,polemikes-texnes,#REF!,,YES,,,NO,www.ma-foundation.gr/el,,
18,647,,Πολεμικές τέχνες,Αθήνα,,,,polemikes-texnes.gr,,, kosrimbaud@gmail.com,www.facebook.com/mahitikiakadimia/timeline,mahitikiakadimia,https://www.polemikes-tehnes.gr/pics/logos/b/2015818115620162.jpg,,,,Ακαδημία Πλάτωνος,,,,,Α.Σ. ΜΑΧΗΤΙΚΗ ΑΚΑΔΗΜΙΑ ΠΛΑΤΩΝΟΣ,polemikes-texnes,kung-fu,Kung Fu,YES,,,NO,,,
19,636,,Πολεμικές τέχνες,Αθήνα,,,,polemikes-texnes.gr,,, info@combatkravmaga.gr,www.facebook.com/kravmagaaigaleo/,kravmagaaigaleo,https://www.polemikes-tehnes.gr/pics/logos/b/20171027121814572.jpg,,,,Αιγάλεω,,,,,KRAV MAGA ΑΙΓΑΛΕΩ,polemikes-texnes,krav-manga,Krav Maga,YES,,,NO,,,
20,972,,Πολεμικές τέχνες,Αθήνα,,,,polemikes-texnes.gr,,, info@karate-tora.gr,www.facebook.com/karatetora/timeline,karatetora,https://www.polemikes-tehnes.gr/pics/logos/b/201592114430406.jpg,,,,Ηλιούπολη,,,,,TORA SHOTOKAN KARATE-DO,polemikes-texnes,karate,Karate,YES,,,NO,www.karate-tora.gr,,
21,1305,,Πολεμικές τέχνες,Αθήνα,,,,polemikes-texnes.gr,,, info@shorinryu.gr,www.facebook.com/KarateShidokanGreece/,KarateShidokanGreece,https://www.polemikes-tehnes.gr/pics/logos/b/2017822132752879.png,,,,μετρόΠανόρμου,,,,,SHIDOKAN SHIRASAGI DOJO ATHENS,polemikes-texnes,karate,Karate,YES,,,NO,www.shorinryu.gr/,,
22,1548,,Πολεμικές τέχνες,Αθήνα,,,,polemikes-texnes.gr,,, info@karatepeiraias.gr,www.facebook.com/karatepeiraias/,karatepeiraias,https://www.polemikes-tehnes.gr/pics/logos/b/2017723122513948.jpg,,,,Πειραιάς,,,,,ΚΑΡΑΤΕ ΠΕΙΡΑΙΑΣ,polemikes-texnes,karate,Karate,YES,,,NO,www.karatepeiraias.gr,,
23,730,,Πολεμικές τέχνες,Αθήνα,,,,polemikes-texnes.gr,,, info@flowtaiji.gr,www.facebook.com/flowtaiji/?pnref=lhc,flowtaiji,https://www.polemikes-tehnes.gr/pics/logos/b/201635151046538.jpg,,,,Αργυρούπολη,,,,,FLOW TAIJI CENTER,polemikes-texnes,kung-fu,Kung Fu,YES,,,NO,flowtaiji.wix.com/flowtaiji,,
24,911,,Πολεμικές τέχνες,Αθήνα,,,,polemikes-texnes.gr,,, naplyg@gmail.com,www.facebook.com/elefsinas.arena/timeline,elefsinas.arena,https://www.polemikes-tehnes.gr/pics/logos/b/201592125935747.jpg,,,,Ελευσίνα,,,,,Α.Σ. ΕΛΕΥΣΙΝΑΣ ΑΡΕΝΑ,polemikes-texnes,jujitsu,Ju Jitsu,YES,,,NO,,,
25,173,,Πολεμικές τέχνες,Αθήνα,,,,polemikes-texnes.gr,,," bujinkandojohellas@gmail.com , info@bujinkanhellas.com ",www.facebook.com/bujinkanhellas ,bujinkanhellas ,https://www.polemikes-tehnes.gr/pics/logos/b/2017728145443406.jpg,,,,,,,,,BUJINKAN BANBUTSU RUTEN DOJO HELLAS,polemikes-texnes,#REF!,,YES,,,NO,www.bujinkanhellas.com/,,
26,714,,Πολεμικές τέχνες,Αθήνα,,,,polemikes-texnes.gr,,, kapselidakis@budotaijutsu.gr ,www.facebook.com/Bujinkan.Nichigetsu.Dojo/?ref=br_rs,Bujinkan.Nichigetsu.Dojo,https://www.polemikes-tehnes.gr/pics/logos/b/201808132313770.jpg,,,,ΑνωΤούμπα,,,,,BUJINKAN NICHIGETSU DOJO,polemikes-texnes,#REF!,,YES,,,NO,www.budotaijutsu.gr/,,
27,833,,Πολεμικές τέχνες,Αθήνα,,,,polemikes-texnes.gr,,, info@budolife.gr,www.facebook.com/budolifegerakas/,budolifegerakas,https://www.polemikes-tehnes.gr/pics/logos/b/201772821917455.jpg,,,,Γέρακας,,,,,BUDO LIFE,polemikes-texnes,#REF!,,YES,,,NO,www.budolife.gr/,,
28,199,,Πολεμικές τέχνες,Αθήνα,,,,polemikes-texnes.gr,,, gdivanity@gmail.com ,www.facebook.com/BoreiosAetos,BoreiosAetos,https://www.polemikes-tehnes.gr/pics/logos/b/201331152049829.jpg,,,,,,,,,Α.Σ. ΒΟΡΕΙΟΣ ΑΕΤΟΣ,polemikes-texnes,kung-fu,Kung Fu,YES,,,NO,www.kungfugreece.blogspot.gr/,,
29,566,,Πολεμικές τέχνες,Αθήνα,,,,polemikes-texnes.gr,,, atrapos7chris@yahoo.com,www.facebook.com/atraposmartialartscenter?pnref=story,atraposmartialartscenter,https://www.polemikes-tehnes.gr/pics/logos/b/20159129182141.jpg,,,,Αγ.ΙωάννηςΡέντη,,,,,Α.Σ. Η ΑΤΡΑΠΟΣ - ΑΓ. ΙΩΑΝΝΗ ΡΕΝΤΗ,polemikes-texnes,#REF!,,YES,,,NO,www.atraposmartialarts.gr/,,
30,1773,,Πολεμικές τέχνες,Αθήνα,,,,polemikes-texnes.gr,,, webmaster@atraposhellas.gr,www.facebook.com/atraposhellas?fref=ts,atraposhellas,https://www.polemikes-tehnes.gr/pics/logos/b/55.jpg,,,,Χαλάνδρι,,,,,Α.Σ. ΑΤΡΑΠΟΣ XAΛΑΝΔΡΙΟΥ,polemikes-texnes,#REF!,,YES,,,NO,www.atraposhellas.gr/,,
31,1424,,Πολεμικές τέχνες,Αθήνα,,,,polemikes-texnes.gr,,, lagosbill@windowslive.com,www.facebook.com/asProtathlitesLagosTeam,asProtathlitesLagosTeam,https://www.polemikes-tehnes.gr/pics/logos/b/2015830154045722.jpg,,,,ΝέοςΚόσμος,,,,,Α.Σ ΠΟΛΕΜΙΚΩΝ ΤΕΧΝΩΝ ΠΡΩΤΑΘΛΗΤΕΣ,polemikes-texnes,tae-kwon-do,Tae Kwon Do,YES,,,NO,,,
32,1032,,Πολεμικές τέχνες,Αθήνα,,,,polemikes-texnes.gr,,, n.antoniou61@gmail.com,www.facebook.com/AoiliouJudoClub/,AoiliouJudoClub,https://www.polemikes-tehnes.gr/pics/logos/b/20181291525671.jpg,,,,Ίλιον,,,,,Α.Ο ΙΛΙΟΥ JUDO CLUB,polemikes-texnes,#REF!,,YES,,,NO,,,
33,834,,Πολεμικές τέχνες,Αθήνα,,,,polemikes-texnes.gr,,, aikido.kobayashi.hellas@gmail.com,www.facebook.com/AikidoKobayashiRyuHellas/,AikidoKobayashiRyuHellas,https://www.polemikes-tehnes.gr/pics/logos/b/2017109184146323.png,,,,Γέρακας,,,,,ΑΚΑΔΗΜΙΑ AIKIDO KOBAYASHI HIROKAZU RYU,polemikes-texnes,aikido,Aikido,YES,,,NO,https://aikidokobayashihellas.wordpress.com/,,
34,1420,,Πολεμικές τέχνες,Αθήνα,,,,polemikes-texnes.gr,,, di.nikolopoulos@gmail.com,www.facebook.com/aikidokenwakai,aikidokenwakai,https://www.polemikes-tehnes.gr/pics/logos/b/2018025233355687.jpg,,,,ΝέοΗράκλειο,,,,,KENWAKAI AIKIDO DOJO,polemikes-texnes,aikido,Aikido,YES,,,NO,www.aikidokenwakai.gr,,
35,170,,Πολεμικές τέχνες,Αθήνα,,,,polemikes-texnes.gr,,, info@aikidoathens.gr,www.facebook.com/AikidoAthensGreece/,AikidoAthensGreece,https://www.polemikes-tehnes.gr/pics/logos/b/2013118114158961.jpg,,,,,,,,,AIKIDO ΑΘΗΝΩΝ,polemikes-texnes,aikido,Aikido,YES,,,NO,www.aikidoathens.gr/,,
36,1250,,Πολεμικές τέχνες,Αθήνα,,,,polemikes-texnes.gr,,, haakodokan@hotmail.com ,www.facebook.com/aikidoarts.gr,aikidoarts.gr,https://www.polemikes-tehnes.gr/pics/logos/b/2015829102914389.jpg,,,,Λυκόβρυση,,,,,AIKIDO KODOKAN ΛΥΚΟΒΡΥΣΗ,polemikes-texnes,aikido,Aikido,YES,,,NO,www.aikidoarts.gr,,
37,1350,,Πολεμικές τέχνες,Αθήνα,,,,polemikes-texnes.gr,,, spartakusneapolitia@gmail.com,www.facebook.com/A.O.Spartacusneapolitia/,A.O.Spartacusneapolitia,https://www.polemikes-tehnes.gr/pics/logos/b/2017931204520498.jpg,,,,Ν.Πολιτεία,,,,,Α.Ο. SPARTACUS - ΝEA ΠΟΛΙΤΕΙΑ,polemikes-texnes,#REF!,,YES,,,NO,,,
38,1194,,Πολεμικές τέχνες,Αθήνα,,,,polemikes-texnes.gr,,, info@4el.gr,www.facebook.com/4el.gr,4el.gr,https://www.polemikes-tehnes.gr/pics/logos/b/201683123051634.jpg,,,,Κουκάκι,,,,,4el,polemikes-texnes,kung-fu,Kung Fu,YES,,,NO,4el.gr/,,
39,1059,,Πολεμικές τέχνες,Αθήνα,,,,polemikes-texnes.gr,,, pewkf@yahoo.com,m.facebook.com/pewkf/,pewkf,https://www.polemikes-tehnes.gr/pics/logos/b/2017102119948253.jpg,,,,Καισαριανή,,,,,ΠΑΝΕΛΛΗΝΙΑ ΕΝΩΣΗ ΓΟΥΣΟΥ - ΚΟΥΝΓΚ ΦΟΥ,polemikes-texnes,#REF!,,YES,,,NO,,,
40,1595,,Πολεμικές τέχνες,Αθήνα,,,,polemikes-texnes.gr,,, papavlachopoulos@kravmagahellas.com,m.facebook.com/KravMagaHellasFederationHkmf/,KravMagaHellasFederationHkmf,https://www.polemikes-tehnes.gr/pics/logos/b/2017822142542436.jpg,,,,Περιστέρι,,,,,KRAV MAGA PAPAVLACHOPOULOS IOANNIS,polemikes-texnes,krav-manga,Krav Maga,YES,,,NO,kravmagahellas.com,,
41,867,,Πολεμικές τέχνες,Αθήνα,,,,polemikes-texnes.gr,,, info@fightway.gr,m.facebook.com/Fightway/,Fightway,https://www.polemikes-tehnes.gr/pics/logos/b/2017821231445613.jpg,,,,Γλυφάδα,,,,,FIGHT WAY,polemikes-texnes,#REF!,,YES,,,NO,www.fightway.gr/,,
42,713,,Πολεμικές τέχνες,Αθήνα,,,,polemikes-texnes.gr,,, info@schoolofevolutiontiger.net,m.facebook.com/evolutiontigerschool/,evolutiontigerschool,https://www.polemikes-tehnes.gr/pics/logos/b/20171021191915686.jpg,,,,ΆνωΠατήσια,,,,,EVOLUTION TIGER SCHOOL,polemikes-texnes,#REF!,,YES,,,NO,www.schoolofevolutiontiger.net,,
43,1805,,Πολεμικές τέχνες,Αθήνα,,,,polemikes-texnes.gr,,, iraklisgrigoriadis@hotmail.com,m.facebook.com/brasahellas/,brasahellas,https://www.polemikes-tehnes.gr/pics/logos/b/20171121212632531.jpg,,,,Χολαργός,,,,,BRASA HELLAS - IRAKLIS GRIGORIADIS FIGHT TEAM,polemikes-texnes,#N/A,Jiu-Jitsu,YES,,,NO,,,
44,273,"Βασιλίσσης Σοφίας 38,Μαρούσι",Πολεμικές τέχνες,Αθήνα,,,,fightsports.gr,,,,https://www.facebook.com/zenfightingclub.gr/,zenfightingclub.gr,http://www.fightsports.gr/wp-content/uploads/2017/09/14633148_10154039577686235_8485523858568511124_o.jpg,,,,,210 80 66 511,,,,ZEN FIGHTING CLUB,polemikes-texnes,#N/A,"Kung Fu (Fu - Jow - Pai),Kickboxing",YES,,,NO,,,
45,852,"Μυκήνων 19,Γλυφαδα,Τ.Κ 16674",Πολεμικές τέχνες,Αθήνα,,,,wefit,,,johnk_9@hotmail.com,https://www.facebook.com/Zenfighters/timeline,Zenfighters,zen.jpg,,,,ΓΛΥΦΑΔΑ,,,,,ZEN Fighters,polemikes-texnes,#REF!,,YES,,,NO,http://www.zenfighters.gr/,,16674
46,1714,"Χορμοβίτου 87, Ταμπούρια, TK 18545",Κλειστού Χώρου,Αθήνα,,,,wefit,,,katevaf@hotmail.com,https://www.facebook.com/yogabalancepilates?fref=ts,yogabalancepilates,ae7125637fe9e73285137f238bfd2f69.jpg,,,,Ταμπούρια,,,,,Yoga Balance & Pilates Shala,kleistou-xorou,yoga,YOGA,YES,,,NO,http://www.yogabalance.gr/,,18545
47,1143,"Γρηγορίου Λαμπράκη 415,Κερατσίνι,Τ.Κ 18757",Πολεμικές τέχνες,Αθήνα,,,,wefit,,,sifuvasilakis@yahoo.gr,https://www.facebook.com/yingjowpaigreece/timeline,yingjowpaigreece,logo (56).jpg,,,,Κερατσίνι,,,,,Ying Jow Pai,polemikes-texnes,#REF!,,YES,,,NO,http://www.kungfu.com.gr/index.php,,18757
48,265,"Λεωφόρος Παπανδρέου 35 και Κλεοβούλη,Ζωγράφου",Πολεμικές τέχνες,Αθήνα,,,,fightsports.gr,,,yaobaogr@gmail.com,https://www.facebook.com/yaobaogr/,yaobaogr,http://www.fightsports.gr/wp-content/uploads/2017/10/Yaobao-Wing-Chun-logo.jpg,,6934 749 820,,,,,,,Yao Bao Foshan Wing Chun,polemikes-texnes,wing-chun,Wing Chun,YES,,,NO,,,
49,334,"25ης Μαρτίου 64,Πετρούπολη",Πολεμικές τέχνες,Αθήνα,,,"Krav Maga,Muay Thai,Kickboxing",fightsports.gr,,,info@xdc.gr,https://www.facebook.com/Xtremedefenceclub,Xtremedefenceclub,http://www.fightsports.gr/wp-content/uploads/2014/10/10298474_649569921796517_8074600756743474831_o.jpg,,6945 052 414,,,210 50 58 801,,,,Xtreme Defence Club,polemikes-texnes,#REF!,,YES,,,NO,,,
50,247,"1.Αθηνοδώρου 19,Πετράλωνα - 2.Φιλικής Εταιρείας 10,Κορυδαλλός",Πολεμικές τέχνες,Αθήνα,,,"Grappling,Muay Thai,Kickboxing,Boxing",fightsports.gr,,,xfightworld@gmail.com,https://www.facebook.com/XFightNation/,XFightNation,http://www.fightsports.gr/wp-content/uploads/2018/01/fight-nation-logo.jpg,,6949 383 897,,,210 34 65 653,,,,X Fight Nation,polemikes-texnes,#REF!,,YES,,,NO,,,
51,1621,"Ξενίας 1,Πλατεία Μαβίλη Αθήνα,Τ.Κ 11527",Κλειστού Χώρου,Αθήνα,,,,wefit,,,thepilateslab@gmail.com,https://www.facebook.com/www.pilateslab.eu?fref=ts,www.pilateslab.eu,10931417_333378336867605_489522190817445034_n.jpg,,,,ΠλατείαΜαβίληΑθήνα,,,,,The Pilates Lab,kleistou-xorou,pilates,PILATES,YES,,,NO,http://www.thepilateslab.gr/,,11527
52,1029,"Ιδομενέως 112,Ίλιον,Τ.Κ: 13122",Κλειστού Χώρου,Αθήνα,,,,wefit,,,,https://www.facebook.com/www.lifeupgym.gr?fref=ts,www.lifeupgym.gr,logo (19).png,,,,Ίλιον,,,,,New Life up,kleistou-xorou,gym,Γυμναστήριο,YES,,,NO,http://www.lifeup.gr/,,13122
53,289,"Λεωφόρος Βουλιαγμένης 171, Δάφνη",Πολεμικές τέχνες,Αθήνα,,,"Krav Maga,Muay Thai,MMA,Boxing,Tae Kwon Do",fightsports.gr,,,info@fivestaracademy.gr,https://www.facebook.com/www.fivestaracademy.gr/,www.fivestaracademy.gr,http://www.fightsports.gr/wp-content/uploads/2016/09/five-star-academy-logo.jpg,,,,,2130 417 480,,,,Five Star Academy,polemikes-texnes,#REF!,,YES,,,NO,,,
54,663,"Ρόδων 6 & Κυβέλης, Άλιμος,T.K 17456",Κλειστού Χώρου,Αθήνα,,,,wefit,,,info@workouthall.gr,https://www.facebook.com/WorkoutHall?fref=ts,WorkoutHall,wh_black_high.jpg,,,,Άλιμος,,,,,WORKOUT HALL,kleistou-xorou,gym,Γυμναστήριο,YES,,,NO,http://www.workouthall.gr/,,17456
55,1249,"Γρ. Λαμπράκη 34,Λυκόβρυση,Τ.Κ 14123",Κλειστού Χώρου,Αθήνα,,,,wefit,,,,https://www.facebook.com/workboxlikovrisi/timeline,workboxlikovrisi,workboxlogo.jpg,,,,Λυκόβρυση,,,,,WorkBox,kleistou-xorou,crossfit,Cross Fit,YES,,,NO,http://workbox.gr/,,14123
56,350,"Κομνηνών & Χρυσολωρά 15,Αθήνα",Πολεμικές τέχνες,Αθήνα,,,,fightsports.gr,,,,https://www.facebook.com/WhiteTigerMuayThaiTrainingCamp,WhiteTigerMuayThaiTrainingCamp,http://www.fightsports.gr/wp-content/uploads/2014/03/1365_147452968788787_1567304406_n.jpg,,6980 563 688,,,210 82 11 505,,,,White Tiger Muay Thai Camp,polemikes-texnes,muay-thai,Muay Thai,YES,,,NO,,,
57,1478,"Λ. Αμφιθέας 61 , Π.Φάληρο , ΤΚ 17564",Κλειστού Χώρου,Αθήνα,,,,wefit,,,whiteboxcrossfit61@gmail.com,https://www.facebook.com/WhiteBoxCrossfit?ref=ts&fref=ts,WhiteBoxCrossfit,logo (52).jpg,,,,Π.Φάληρο,,,,,WhiteBox CrossFit,kleistou-xorou,crossfit,Cross Fit,YES,,,NO,http://whiteboxcrossfit.gr/,,17564
58,882,"Χίου 21,Δάφνη,Τ.Κ 17237",Κλειστού Χώρου,Αθήνα,,,,wefit,,,saintdion@hotmail.com,https://www.facebook.com/wayoutgym/timeline,wayoutgym,10411225_518800348243128_2831607362116968122_n.jpg,,,,Δάφνη,,,,,WAY OUT FITNESS CLUB,kleistou-xorou,#REF!,,YES,,,NO,,,17237
59,253,"Θυατείρων 9,Νέα Σμύρνη",Πολεμικές τέχνες,Αθήνα,,,,fightsports.gr,,,v.panagiotopoulostkd@gmail.com,https://www.facebook.com/vpanagiotopoulos/,vpanagiotopoulos,http://www.fightsports.gr/wp-content/uploads/2017/12/kinegiros-logo.jpg,,6940 786 680,,,210 93 34 040,,,,Αθλητικός Σύλλογος Κυναίγειρος,polemikes-texnes,tae-kwon-do,Tae Kwon Do,YES,,,NO,,,
60,153,ΟΑΚΑ-ΚΟΛΥΜΒΗΤΗΡΙΟ,Πολεμικές τέχνες,Αθήνα,,,,wefit,,,vyzantinos@target-sport.gr,https://www.facebook.com/VizantinosTargetSportClub,VizantinosTargetSportClub,10701932_1470574489888222_7425607286072720282_n.jpg,,,,,,,,,Vyzantinos Target Sport Club,polemikes-texnes,#REF!,,YES,,,NO,,,
61,324,"Ολυμπιακό Στάδιο - Κλειστό Κολυμβητήριο (ΟΑΚΑ Κηφισίας 37),Μαρούσι",Πολεμικές τέχνες,Αθήνα,,,"Kickboxing,Boxing",fightsports.gr,,,vizantinos@target-sport.gr,https://www.facebook.com/vizantinosGym?pnref=lhc,vizantinosGym,http://www.fightsports.gr/wp-content/uploads/2014/03/vizantinos.jpg,,6944 684 747,,,210 68 21 291 - 210 32 44 313,,,,Vizantinos Target Sport Club,polemikes-texnes,tennis,Tennis,YES,,,NO,,,
62,269,"Ευαγγελίστριας 30,Νέα Ερυθραία",Πολεμικές τέχνες,Αθήνα,,,"Sanda,Krav Maga,Brazilian Jiu Jitsu,Kickboxing,Boxing",fightsports.gr,,,info@viperfightclub.gr,https://www.facebook.com/ViperFightClub.NeaErithraia/,ViperFightClub.NeaErithraia,http://www.fightsports.gr/wp-content/uploads/2017/10/viper-fight-club-logo.png,,6971 618 234,,,2130 441 787,,,,Viper Fight Club,polemikes-texnes,#REF!,,YES,,,NO,,,
63,771,"Παΐζη 56, Βάρη, ΤΚ 16672",Αθλητισμός,Αθήνα,,,,wefit,,,kampanaosjohn@yahoo.gr,https://www.facebook.com/Varitennisclub?ref=br_rs,Varitennisclub,logo (59).jpg,,,,Βάρη,,,,,Vari Tennis Club,athlitismos,tennis,Tennis,YES,,,NO,http://varitennisclub.gr/,,16672
64,785,"Λευκάδος 10, Βούλα, ΤΚ 16673",Κλειστού Χώρου,Αθήνα,,,,wefit,,,,https://www.facebook.com/urbanyogagr,urbanyogagr,urban-yoga-logo1.jpg,,,,Βούλα,,,,,Urban Yoga,kleistou-xorou,yoga,Yoga,YES,,,NO,http://www.urbanyoga.gr/,,16673
65,662,"Ιωνίας 9,Άλιμος,Τ.Κ. 17456",Κλειστού Χώρου,Αθήνα,,,,wefit,,,info@twinsfit.gr,https://www.facebook.com/TwinsFitAthens?fref=ts,TwinsFitAthens,10360397_299766336880388_8654016419344381176_n.png,,,,Άλιμος,,,,,Twins Fit Aliki & Maria Dimakopoulou,kleistou-xorou,#REF!,,YES,,,NO,http://www.twinsfit.gr/,,17456
66,312,"Δήμητρας 11,Άγιος Δημήτριος",Πολεμικές τέχνες,Αθήνα,,,"Sanda,Krav Maga,Boxing",fightsports.gr,,,tragakis@yahoo.com,https://www.facebook.com/TragakisStudio?fref=ts,TragakisStudio,http://www.fightsports.gr/wp-content/uploads/2016/01/tragakis-studio-logo.jpg,,6932 222 535,,,210 97 67 458,,,,Tragakis Studio,polemikes-texnes,#REF!,,YES,,,NO,,,
67,888,"Διονύσιου Πλαστήρα 50,Διόνυσος,Τ.Κ: 14576",Πολεμικές τέχνες,Αθήνα,,,,wefit,,,giannis.govas@gmail.com,https://www.facebook.com/tkdjaguar.gr/timeline,tkdjaguar.gr,1460267_1381808752039813_1848506952_n.png,,,,Διόνυσος,,,,,Taekwondo Jaguar,polemikes-texnes,#REF!,,YES,,,NO,http://taekwondo-jaguar.gr/,,14576
68,340,"Γρηγορίου Λαμπράκη 45,Ταύρος",Πολεμικές τέχνες,Αθήνα,,,,fightsports.gr,,,khrugkitsas@gmail.com,https://www.facebook.com/tigercamp.gr,tigercamp.gr,http://www.fightsports.gr/wp-content/uploads/2013/12/tiger-muay-thai-boran-logo-.jpg,,,,,Κιν.: 6909 151 560,,,,Tiger Muay Thai Boran Camp,polemikes-texnes,muay-thai,Muay Thai,YES,,,NO,,,
69,251,Αθήνα & Θεσσαλονίκη,Πολεμικές τέχνες,Αθήνα,,,,fightsports.gr,,,info@theringboxingacademy.gr,https://www.facebook.com/theRingBoxingAcademy/,theRingBoxingAcademy,http://www.fightsports.gr/wp-content/uploads/2017/12/the-ring-boxing-academy.jpg,,6971 804 244,,,,,,,The Ring Boxing Academy,polemikes-texnes,boxing,Boxing,YES,,,NO,,,
70,276,"Σοφοκλέους 12,Χαϊδάρι",Πολεμικές τέχνες,Αθήνα,,,,fightsports.gr,,,,https://www.facebook.com/theimmortalsgymgr/,theimmortalsgymgr,http://www.fightsports.gr/wp-content/uploads/2017/06/the-immortals-logo.jpg,,6944 282 183,,,2130 428 511,,,,The Immortals,polemikes-texnes,boxing,Boxing,YES,,,NO,,,
71,252,"Αθανασίου Διάκου 26,Δάσος Χαϊδαρίου",Πολεμικές τέχνες,Αθήνα,,,,fightsports.gr,,,thegunacademy@gmail.com,https://www.facebook.com/thegunacademy/,thegunacademy,http://www.fightsports.gr/wp-content/uploads/2017/12/24899184_1913497898911026_946782908_n.jpg,,6970 255 005,,,,,,,The Gun Academy,polemikes-texnes,kickboxing,Kick Boxing,YES,,,NO,,,
72,859,"Φοίβης 13,Γλυφάδα,Τ.Κ. 16674",Κλειστού Χώρου,Αθήνα,,,,wefit,,,,https://www.facebook.com/theEdgeGlyfadas,theEdgeGlyfadas,1185013_561335930569165_559674972_n.jpg,,,,Γλυφάδα,,,,,EDGE performance center,kleistou-xorou,personal-trainer,Personal Trainer,YES,,,NO,,,16674
73,1717,"Κορυζή 28, Ταύρος, ΤΚ 17778",Κλειστού Χώρου,Αθήνα,,,,wefit,,,info@tctavros.gr,https://www.facebook.com/theConcept.tavrou,theConcept.tavrou,10481659_270741016451542_5045148175655360785_o.jpg,,,,Ταύρος,,,,,The Concept Group Fitness Terminal,kleistou-xorou,#REF!,,YES,,,NO,http://tctavros.gr/,,17778
74,976,"Σελήνης 23,Ηράκλειο,Τ.Κ:  14123",Πολεμικές τέχνες,Αθήνα,,,,wefit,,,taichiathens@gmail.com,https://www.facebook.com/TaiChiChuanAthens,TaiChiChuanAthens,149388_774579132616028_1860116670175726625_n.jpg,,,,Ηράκλειο,,,,,Athens Tai Chi Chuan Association,polemikes-texnes,#REF!,,YES,,,NO,http://taichiathens.gr/,,14123
75,368,"Χαροκόπου 115-117,Καλλιθέα",Πολεμικές τέχνες,Αθήνα,,,,fightsports.gr,,,gtagas73@gmail.com,https://www.facebook.com/tagasteam/?fref=ts,tagasteam,http://www.fightsports.gr/wp-content/uploads/2012/10/logo-theagenis.jpg,,6974 873 656,,,210 95 66 368,,,,Αθλητικός Σύλλογος Taekwondo ΘΕΑΓΕΝΗΣ,polemikes-texnes,tae-kwon-do,Tae Kwon Do,YES,,,NO,,,
76,293,"Σαρανταπόρου 62,Περιστέρι",Πολεμικές τέχνες,Αθήνα,,,"Kickboxing,Boxing,Tae Kwon Do",fightsports.gr,,,,https://www.facebook.com/taekwodokickboxing/,taekwodokickboxing,http://www.fightsports.gr/wp-content/uploads/2016/10/parasidis-logo.jpg,,6945 242 388,,,210 57 54 640,,,,Α.Σ Taekwondo Περιστερίου Παρασίδης,polemikes-texnes,#REF!,,YES,,,NO,,,
77,632,"Θηβών 333 & Βάρναλη 1,Αιγάλεω,Τ.Κ 12242",Κλειστού Χώρου,Αθήνα,,,,wefit,,,,https://www.facebook.com/stonehammerpersonalcenter,stonehammerpersonalcenter,1800336_721987294501115_996587996_n.jpg,,,,Αιγάλεω,,,,,Personal Center,kleistou-xorou,gym,Γυμναστήριο,YES,,,NO,,,12242
78,1590,"Μεσολογγίου 54, Περιστέρι, Τ.Κ 12134",Κλειστού Χώρου,Αθήνα,,,,wefit,,,smilestudios@smilestudios.gr,https://www.facebook.com/smilestudios,smilestudios,418672_332680826826045_571104125_n.jpg,,,,Περιστέρι,,,,,Smiles,kleistou-xorou,#REF!,,YES,,,NO,http://www.smilestudios.gr/,,12134
79,1554,"Ακτή Θεμιστοκλέους 74, Πειραϊκή, ΤΚ 18537",Κλειστού Χώρου,Αθήνα,,,,wefit,,,info@slicegym.gr,https://www.facebook.com/SliceGym,SliceGym,logo (63).jpg,,,,Πειραϊκή,,,,,Slice Fitness Hall,kleistou-xorou,#REF!,,YES,,,NO,http://www.slicegym.gr/,,18537
80,261,"Ανδρομάχης 52,Καλλιθέα",Πολεμικές τέχνες,Αθήνα,,,,fightsports.gr,,,,https://www.facebook.com/skarogiannis.team.karate/,skarogiannis.team.karate,http://www.fightsports.gr/wp-content/uploads/2016/09/skarogiannis-stelios-house-of-champions-logo.jpg,,6932 404 566 - 6980 056 394,,,210 95 72 736,,,,Skarogiannis Team – House of Champions,polemikes-texnes,karate,Karate,YES,,,NO,,,
81,1142,"Βασίλειου Μέλετη 5,Κερατσίνι,Τ.Κ: 18757",Κλειστού Χώρου,Αθήνα,,,,wefit,,,info@silvereight.gr,https://www.facebook.com/silvereightstudio?fref=ts,silvereightstudio,10290631_858685237526228_4003108191826022834_n.jpg,,,,Κερατσίνι,,,,,Silvereight,kleistou-xorou,#REF!,,YES,,,NO,http://www.silvereight.gr/,,18757
82,1159,"Μάρκου Mπότσαρη 30,Κηφισιά,Τ.Κ. 14561",Πολεμικές τέχνες,Αθήνα,,,,wefit,,,shiaiclub@gmail.com,https://www.facebook.com/shiaiclub/timeline,shiaiclub,logo (26).jpg,,,,Κηφισιά,,,,,Shiai Club,polemikes-texnes,#REF!,,YES,,,NO,,,14561
83,1594,"Αγίου Πέτρου 25,Περιστέρι,Τ.Κ: 12135",Πολεμικές τέχνες,Αθήνα,,,,wefit,,,alexop_n@yahoo.gr,https://www.facebook.com/shaolinperisteri,shaolinperisteri,img_20170626_131003.jpg,,,,Περιστέρι,,,,,"Παραδοσιακό Σαολίν & Τάι Τσι ""Shaolin Temple Greece-Peristeri""",polemikes-texnes,#REF!,,YES,,,NO,http://www.shaolin.com.gr/,,12135
84,979,"Πλαπούτα & Καλλικράτους 4 ,Ηράκλειο,Τ.Κ: 14122",Πολεμικές τέχνες,Αθήνα,,,,wefit,,,iraklio@shaolin.com.gr,https://www.facebook.com/shaolingongfu.gr/timeline,shaolingongfu.gr,75976_567114973305183_721611877_n.png,,,,Ηράκλειο,,,,,"Shaolin Gong Fu ""Η Πηγή του Νεαρού Δάσους """,polemikes-texnes,#REF!,,YES,,,NO,http://www.shaolin.com.gr/,,14122
85,1278,"Βασιλίσσης Σοφίας 26-28,2ος όροφος,Μαρούσι,Τ.Κ: 15124",Κλειστού Χώρου,Αθήνα,,,,wefit,,,contact@sahajayoga.gr,https://www.facebook.com/sahajayogahellas,sahajayogahellas,logo (4).png,,,,Μαρούσι,,,,,Sahaja Yoga,kleistou-xorou,yoga,YOGA,YES,,,NO,http://www.sahajayoga.gr/en/,,15124
86,124,"Leof. Irinis 87, Perama 188 63, Greece",Αθλητισμός,Αθήνα,,,,hunter.io,,,,https://www.facebook.com/rythmoskaikinisiperama/about/?entry_point=page_nav_about_item&tab=overview/,rythmoskaikinisiperama,,,,,,21 0441 4890,,,,Ρυθμος & Κινηση,athlitismos,gymnastics-rithmiki,Ενόργανη-Ρυθμική,YES,,,NO,,,
87,978,"Προβελέγγιου 4, Ηράκλειο, TK 14122",ΑΘΛΗΜΑΤΑ ΒΟΥΝΟΥ,Αθήνα,,,,wefit,,,info@rockwayclimbing.com,https://www.facebook.com/rockway.climbing,rockway.climbing,top_logo.jpg,,,,Ηράκλειο,,,,,Rock way climbing gym,#N/A,#REF!,,YES,,,NO,http://www.rockwayclimbing.com/el/,,14122
88,634,"Βάλτετσίου 3,Αιγάλεω,Τ.Κ: 12241",Αθλητισμός,Αθήνα,,,,wefit,,,,https://www.facebook.com/RhytmicsGymnastics?fref=ts,RhytmicsGymnastics,223932_507302289284157_1160977415_n.jpg,,,,Αιγάλεω,,,,,Σ.ΦΙ.ΓΑ(σύλλογος φίλων γυμναστικής Αιγάλεω),athlitismos,gymnastics-rithmiki,Ενόργανη-Ρυθμική,YES,,,NO,,,12241
89,148,ΟΑΚΑ-ΣΤΙΒΟΣ,Κλειστού Χώρου,Αθήνα,,,,wefit,,,info@replayce.com,https://www.facebook.com/ReplayceAlternativeEducationalSystem/timeline,ReplayceAlternativeEducationalSystem,1513780_610255779105801_1982676056844512528_n.jpg,,,,,,,,,Replayce,kleistou-xorou,gym,Γυμναστήριο,YES,,,NO,http://www.replayce.com/,,
90,799,"Α. Διάκου 12 & Μ. Αλεξάνδρου,Βριλήσσια,Τ.Κ. 15235",Κλειστού Χώρου,Αθήνα,,,,wefit,,,info@redblossom.gr,https://www.facebook.com/RedblossomBodyMind,RedblossomBodyMind,95f09d_30423d0a7a3cfe8519b18921ec0c6cbbpng_srz_p_100_126_75_22_050_120_0.png,,,,Βριλήσσια,,,,,Redblossom Body & Mind,kleistou-xorou,pilates,Pilates,YES,,,NO,http://www.redblossom.gr/,,15235
91,595,"Ηρώων Πολυτεχνείου 13,Άγιος Στέφανος,Τ.Κ: 14565",Κλειστού Χώρου,Αθήνα,,,,wefit,,,,https://www.facebook.com/RealRyderStudio.Gr,RealRyderStudio.Gr,cropped-realryder-logo2.jpg,,,,ΆγιοςΣτέφανος,,,,,Real Ryder Studio,kleistou-xorou,#REF!,,YES,,,NO,http://www.realryderstudio.gr/,,14565
92,275,"26ο χλμ Αθηνών Λαυρίου,Κορωπί",Πολεμικές τέχνες,Αθήνα,,,"Grappling,MMA,Kickboxing",fightsports.gr,,,ellinikospyrsos@yahoo.gr,https://www.facebook.com/pyrsosfightteam/,pyrsosfightteam,http://www.fightsports.gr/wp-content/uploads/2017/06/pyrsos-fight-team-logo.jpg,,6977 564 539,,,2155 201 707,,,,Pyrsos Fight Team (ΑΓΣ ΚΟΡΩΠΙΟΥ ΕΛ. ΠΥΡΣΟΣ),polemikes-texnes,#REF!,,YES,,,NO,,,
93,352,"Κίμωνος 5,Νίκαια",Πολεμικές τέχνες,Αθήνα,,,"Krav Maga,Muay Thai,MMA,Kickboxing",fightsports.gr,,,psilopatisgiorgos@gmail.com,https://www.facebook.com/PsilopatisSpartansAcademy/,PsilopatisSpartansAcademy,http://www.fightsports.gr/wp-content/uploads/2013/12/psilopatis-camp-logo.jpg,,6970 621 717,,,2155 506 475,,,,Α.Σ Σπαρτιάτικη Ακαδημία (Psilopatis Camp),polemikes-texnes,#REF!,,YES,,,NO,,,
94,1447,"Κίμωνος 1 & Αχιλλέως, Νίκαια, ΤΚ 18454",Πολεμικές τέχνες,Αθήνα,,,,wefit,,,spartiatiki_akadimia@hotmail.com,https://www.facebook.com/PsilopatisSpartansAcademy?fref=ts,PsilopatisSpartansAcademy,logo (7).jpg,,,,Νίκαια,,,,,Psilopatis Camp,polemikes-texnes,#REF!,,YES,,,NO,http://www.muaythaicamp.gr/,,18454
95,1767,"Κώστα Βάρναλη 27,Χαλάνδρι,Τ.Κ: 15233",Πολεμικές τέχνες,Αθήνα,,,,wefit,,,mountakis.p@gmail.com,https://www.facebook.com/promachosboxing/timeline,promachosboxing,10440704_570597886382192_6089963277984118493_n.png,,,,Χαλάνδρι,,,,,Promachos Boxing Club,polemikes-texnes,#REF!,,YES,,,NO,,,15233
96,1406,"Αλεξάνδρου Παπαναστασίου 4,Νέα Φιλαδέλφεια,Τ.Κ 14341",Αθλητισμός,Αθήνα,,,,wefit,,,info@pmahellas.com,https://www.facebook.com/pmahellas?fref=ts,pmahellas,pma-hellas-square-canvas.jpg,,,,ΝέαΦιλαδέλφεια,,,,,PMA Hellas,athlitismos,fencing,Ξιφασκία,YES,,,NO,http://www.pmahellas.com/,,14341
97,1229,"Πέρδικας 1,Λαύριο,Τ.Κ: 19500",ΚΑΤΑΔΥΤΙΚΑ ΚΕΝΤΡΑ,Αθήνα,,,,wefit,,,info@planetblue.gr,https://www.facebook.com/planetbluedivingcenter?fref=ts,planetbluedivingcenter,logo (23).png,,,,Λαύριο,,,,,Planet Blue Diving Center,#N/A,#REF!,,YES,,,NO,http://www.planetblue.gr/content/index.php?option=com_content&view=frontpage&Itemid=57,,19500
98,798,"Λεωφ. Πεντέλης 132, Βριλήσσια,Τ.Κ 152 35",Κλειστού Χώρου,Αθήνα,,,,wefit,,,,https://www.facebook.com/planet.vrilissia?fref=ts,planet.vrilissia,logo.png,,,,Βριλήσσια,,,,,PLANET FITNESS AND MORE,kleistou-xorou,gym,Γυμναστήριο,YES,,,NO,http://planetfitness.gr/clubs/vrilissia/,,15235
99,1809,"Λεωφ. Κηφισίας 338, Ψυχικό,T.K. 154 51",Κλειστού Χώρου,Αθήνα,,,,wefit,,,,https://www.facebook.com/planet.psychiko/info?tab=overview,planet.psychiko,logo (2).png,,,,Ψυχικό,,,,,PLANET FITNESS & MORE,kleistou-xorou,gym,Γυμναστήριο,YES,,,NO,http://planetfitness.gr/clubs/psychiko/,,15451
100,302,"Ομηρίδου Σκυλίτση 14,Πειραιάς",Πολεμικές τέχνες,Αθήνα,,,"Sanda,Kickboxing,Boxing",fightsports.gr,,,stavrosstof@gmail.com,https://www.facebook.com/piraeuscolosseum.arena,piraeuscolosseum.arena,http://www.fightsports.gr/wp-content/uploads/2014/02/293380_107045552735688_594066346_n.jpg,,6932 567 063 - 6945 024 958,,,210 42 21 322,,,,Colosseum Fighting Arena,polemikes-texnes,#REF!,,YES,,,NO,,,
101,1160,"Χελιδονούς 20Α,Κηφισιά,Τ.Κ: 14564",Κλειστού Χώρου,Αθήνα,,,,wefit,,,,https://www.facebook.com/pilateskifissia,pilateskifissia,1476145_632243463505579_974288220_n.jpg,,,,Κηφισιά,,,,,Studio Pilates San Tsai,kleistou-xorou,pilates,Pilates,YES,,,NO,http://www.pilateskifissia.gr/index.php?option=com_content&view=frontpage&Itemid=1,,14564
102,1777,"Παπαναστασίου 3,Χαλάνδρι (ΜΕΤΡΟ Αγ. Παρασκευής),Τ.Κ  152 34",Κλειστού Χώρου,Αθήνα,,,,wefit,,,info@physiopolis.gr,https://www.facebook.com/Physiopolis.official?fref=ts,Physiopolis.official,logo_physiopolis.png,,,,Χαλάνδρι(ΜΕΤΡΟΑγ.Παρασκευής),,,,,Physiopolis,kleistou-xorou,gym,Γυμναστήριο,YES,,,NO,http://www.wefit.gr/fitness-places/physiopolis/www.physiopolis.gr,,15234
103,545,"Κότσικα 2 Π.Άρεως – Αθήνα,T.K 10434",Κλειστού Χώρου,Αθήνα,,,,wefit,,,info@physiomedica.gr,https://www.facebook.com/physiomedica.iliadis?fref=ts,physiomedica.iliadis,277251_163083170544533_78614410_o.jpg,,,,T.K10434,,,,,Physiomedica dr Iliadis Team Athens,kleistou-xorou,gym,Γυμναστήριο,YES,,,NO,http://physiomedica.gr/physiomedica/,,
104,1476,"Λ. Αμφιθέας 23 , Π.Φάληρο, ΤΚ 17564",Κλειστού Χώρου,Αθήνα,,,,wefit,,,info@physicalgym.gr,https://www.facebook.com/PHY24,PHY24,logo (33).jpg,,,,Π.Φάληρο,,,,,Physical Gym,kleistou-xorou,gym,Γυμναστήριο,YES,,,NO,http://www.physicalgym.gr/,,17564
105,256,"Ελληνοσερβικής Φιλίας 63,Αγία Παρασκευή",Πολεμικές τέχνες,Αθήνα,,,,fightsports.gr,,,t_ritzakis@hotmail.com,https://www.facebook.com/phoenixboxingclub63/,phoenixboxingclub63,http://www.fightsports.gr/wp-content/uploads/2017/11/phoenix-boxing-club-logo-1.jpg,,6909 156 435,,,2114 039 358,,,,Phoenix Boxing Club,polemikes-texnes,boxing,Boxing,YES,,,NO,,,
106,1586,"Αγ.Βασιλείου 196, Περιστέρι, T.K 12137",Πολεμικές τέχνες,Αθήνα,,,,wefit,,,dojoclubgr@gmail.com,https://www.facebook.com/peristeridojoclub,peristeridojoclub,cropped-dojo-club-copy-300x75.jpg,,,,Περιστέρι,,,,,Dojo Club Peristeri,polemikes-texnes,#REF!,,YES,,,NO,http://dojoclub.gr/find/,,12137
107,146,,Κλειστού Χώρου,Αθήνα,,,,wefit,,,info@performance22.gr,https://www.facebook.com/Performance22,Performance22,logo (9).jpg,,,,,,,,,Performance 22,kleistou-xorou,gym,Γυμναστήριο,YES,,,NO,http://www.performance22.gr/,,
108,1473,"Ζησιμοπούλου 68, Π.Φάληρο, ΤΚ 17564",Κλειστού Χώρου,Αθήνα,,,,wefit,,,peakfitnesshall@gmail.com,https://www.facebook.com/PeakFitnessHall?fref=ts,PeakFitnessHall,logo (20).jpg,,,,Π.Φάληρο,,,,,Golden Peak Fitness,kleistou-xorou,gym,Γυμναστήριο,YES,,,NO,http://www.peakfitness.gr/,,17564
109,291,"Aγ. Πέτρου 36,Αχαρνές",Πολεμικές τέχνες,Αθήνα,,,,fightsports.gr,,,archaia_olympia@yahoo.gr,https://www.facebook.com/PasArchaiaOlympia/,PasArchaiaOlympia,http://www.fightsports.gr/wp-content/uploads/2016/09/arxaia-olimpia-logo.jpg,,,,,210 240 24 35,,,,Π.Α.Σ Αρχαία Ολυμπία Ταεκβοντο,polemikes-texnes,tae-kwon-do,Tae Kwon Do,YES,,,NO,,,
110,358,"1.Υπολοχαγού Καββαθά 25,Ζωγράφου - 2.Υμηττού 219,Παγκράτι",Πολεμικές τέχνες,Αθήνα,,,,fightsports.gr,,,info@pagration-arena.gr,https://www.facebook.com/pagrationarena/,pagrationarena,http://www.fightsports.gr/wp-content/uploads/2013/12/pagration-arena-logo.jpg,,6948 047 572 - 6945 060 696,,,,,,,Pagration Arena,polemikes-texnes,#N/A,"Brazilian Jiu Jitsu,MMA,Kickboxing,Boxing",YES,,,NO,,,
111,948,"Διάκριας 14 κ Καββαθά 30,Ζωγράφου,T.K: 15773",Κλειστού Χώρου,Αθήνα,,,,wefit,,,themis.vasilis@gmail.com,https://www.facebook.com/pagrationarena,pagrationarena,1463557_374291796050393_2100828282_n.jpg,,,,Ζωγράφου,,,,,Pagration arena,kleistou-xorou,#N/A,ΓΥΜΝΑΣΤΗΡΙΟ,YES,,,NO,http://pagration-arena.gr/,,15773
112,1294,"25ης Μαρτίου & Καλλέργη 27,Μελίσσια,Τ.Κ: 15127",Πολεμικές τέχνες,Αθήνα,,,,wefit,,,,https://www.facebook.com/pages/Team-wolf-31/975477785814457?pnref=story,975477785814457,10612636_594183890691001_8091035390260884407_n.jpg,,,,Μελίσσια,,,,,TEAM WOLF 31,polemikes-texnes,#REF!,,YES,,,NO,http://www.teamwolf31.com/,,15127
113,318,"Θηβών 60,Πειραιάς",Πολεμικές τέχνες,Αθήνα,,,,fightsports.gr,,,makis802009@hotmail.com,https://www.facebook.com/pages/Talent-boxing-academy/1714302302130726?fref=ts,1714302302130726,http://www.fightsports.gr/wp-content/uploads/2015/08/talent-boxing-academy-new-logo.jpg,,6944 891 688,,,,,,,Talent Boxing Academy (Dimatos Team),polemikes-texnes,#N/A,"Kickboxing,Boxing",YES,,,NO,,,
114,351,"1.Τυρταίου 5,Μέτς (Στύλες Ολ.Διός) - 2.Γεωργίου Παπανδρέου 87,Ζωγράφου-Γουδί",Πολεμικές τέχνες,Αθήνα,,,,fightsports.gr,,,,https://www.facebook.com/pages/PLIAKOS-MUAY-THAI-CAMP/132334743529481?fref=ts,132334743529481,http://www.fightsports.gr/wp-content/uploads/2014/03/954511_10202060931499467_149087617_n.jpg,,6986804968 - 6947558099 - 6973433434,,,,,,,Pliakos Muay Thai Camp,polemikes-texnes,muay-thai,Muay Thai,YES,,,NO,,,
115,143,OAKA-ΚΟΛΥΜΒΗΤΗΡΙΟ,Κλειστού Χώρου,Αθήνα,,,,wefit,,,,https://www.facebook.com/pages/OAKA-BOX/513514568759590,513514568759590,logo (21).png,,,,,,,,,OAKABOX,kleistou-xorou,#N/A,ΓΥΜΝΑΣΤΗΡΙΟ,YES,,,NO,http://www.wefit.gr/fitness-places/oakabox/okbxclub.gr,,
116,1430,"Αγγ.Σικελιανού 2, Νέο Ψυχικό, ΤΚ 11525",Κλειστού Χώρου,Αθήνα,,,,wefit,,,info@flowcenter.gr,https://www.facebook.com/pages/FLOW-CENTER/151832569365?sk=timeline,151832569365,logo (18).jpg,,,,ΝέοΨυχικό,,,,,Flow center,kleistou-xorou,yoga,YOGA,YES,,,NO,http://www.flowcenter.gr/index.php?contentid=46,,11525
117,915,"Ιασωνίδου 58, Ελληνικό, ΤΚ 16777",Κλειστού Χώρου,Αθήνα,,,,wefit,,,bodyconcept@hotmail.gr,https://www.facebook.com/pages/Body-Concept/102312799813336,102312799813336,544682_355759417802005_2085724606_n.jpg,,,,Ελληνικό,,,,,Body Concept,kleistou-xorou,#N/A,ΓΥΜΝΑΣΤΗΡΙΟ,YES,,,NO,,,16777
118,1772,"Λεωφόρος Πεντέλης 150, Χαλάνδρι,T.K15233",Αθλητισμός,Αθήνα,,,,wefit,,,athlokinisi@hotmail.com,https://www.facebook.com/pages/Athlokinisi/441081002638727?fref=ts,441081002638727,logo (24).png,,,,Χαλάνδρι,,,,,ΑΘΛΟΚΙΝΗΣΗ Χαλανδρίου,athlitismos,#N/A,ΡΥΘΜΙΚΗ - ΕΝΟΡΓΑΝΗ,YES,,,NO,http://www.athlokinisi.com.gr/,,15233
119,259,"Καυκάσου 133,Άνω Κυψέλη",Πολεμικές τέχνες,Αθήνα,,,,fightsports.gr,,,,https://www.facebook.com/olympionromi/,olympionromi,http://www.fightsports.gr/wp-content/uploads/2017/11/olimpion-romi.jpg,,6906 458 748,,,,,,,Α.Σ Ολυμπίων Ρώμη,polemikes-texnes,tae-kwon-do,Tae Kwon Do,YES,,,NO,,,
120,330,"Βοσπόρου 32,Ελληνικό",Πολεμικές τέχνες,Αθήνα,,,,fightsports.gr,,,vasxer1977@gmail.com,https://www.facebook.com/oldschoolfightgym/timeline,oldschoolfightgym,http://www.fightsports.gr/wp-content/uploads/2015/01/fight-old-school-gym.jpg,,,,,Κιν.: 6947 522 295,,,,OLD SCHOOL FIGHT GYM,polemikes-texnes,#N/A,"Kickboxing,Boxing",YES,,,NO,,,
121,292,"Αθήνα,Αστυπάλαια,Ικαρία",Πολεμικές τέχνες,Αθήνα,,,,fightsports.gr,,,operationalkravmagagreece@yahoo.com,https://www.facebook.com/okmhellas,okmhellas,http://www.fightsports.gr/wp-content/uploads/2016/09/14407673_1648053778839605_307616394_n.jpg,,6949 073 657,,,,,,,Operational Krav Maga Hellenic Department,polemikes-texnes,krav-manga,Krav Maga,YES,,,NO,,,
122,243,"Θεσσαλονίκης 151,Άνω Πετράλωνα",Πολεμικές τέχνες,Αθήνα,,,,fightsports.gr,,,oimonomaxoi@gmail.com,https://www.facebook.com/oimonomaxoi.gladiatorteam/,oimonomaxoi.gladiatorteam,http://www.fightsports.gr/wp-content/uploads/2016/12/gladiator-team-monomaxoi-logo.jpg,,6944 860 014,,,211 40 37 300,,,,Α.Σ «ΟΙ Μονομάχοι» Gladiator Team,polemikes-texnes,#N/A,"Hapkido,Muay Thai,Kickboxing,Boxing",YES,,,NO,,,
123,575,"Σιπύλου 16,Αγία Βάρβαρα,Τ.Κ 12351",Αθλητισμός,Αθήνα,,,,wefit,,,odysseusbc1@gmail.com,https://www.facebook.com/OdysseusBC/timeline,OdysseusBC,1779242_685876044798709_1324030606_n.jpg,,,,ΑγίαΒάρβαρα,,,,,Οδυσσέας Αγίας Βαρβαρας,athlitismos,basket,Basket,YES,,,NO,http://www.odysseusbc.gr/,,12351
124,164,,Αθλητισμός,Αθήνα,,,,wefit,,,oax@otenet.gr,https://www.facebook.com/oax.tennis,oax.tennis,oax_logo1.png,,,,,,,,,Όμιλος Αντισφαίρισης Χολαργού,athlitismos,tennis,Tennis,YES,,,NO,http://www.oax.gr/index.php,,
125,1456,"Σπύρου Λούη 37, ΟΑΚΑ Μέσα στο κλειστό κολυμβητήριο,T.K 15124",ΑΘΛΗΜΑΤΑ ΒΟΥΝΟΥ,Αθήνα,,,,wefit,,,info@oakaindoorclimbing.gr,https://www.facebook.com/OakaIndoorClimbing/timeline,OakaIndoorClimbing,logo (34).jpg,,,,ΟΑΚΑΜέσαστοκλειστόκολυμβητήριο,,,,,OAKA Indoor Climbing,#N/A,#REF!,,YES,,,NO,http://www.oakaindoorclimbing.gr/,,15124
126,1276,"Οδ. Ανδρούτσου 10 (πλησιον ΗΣΑΠ),Μαρούσι,T.K. 15124",Κλειστού Χώρου,Αθήνα,,,,wefit,,,nicksathleticcenter@yahoo.gr,https://www.facebook.com/nicksathleticcenter,nicksathleticcenter,m12.jpg,,,,Μαρούσι,,,,,Nick's athletic center,kleistou-xorou,gym,Γυμναστήριο,YES,,,NO,http://www.nicks-athletic-center.gr/index.html,,15124
127,1141,"Πάναγνη Τσαλδάρη 58,Κερατσίνι,Τ.Κ: 18757",Κλειστού Χώρου,Αθήνα,,,,wefit,,,,https://www.facebook.com/NAVASANA,NAVASANA,logo3.png,,,,Κερατσίνι,,,,,Navasana,kleistou-xorou,yoga,YOGA,YES,,,NO,http://navasana.gr/,,18757
128,1390,"Αγίου Αντωνίου,Νέα Μάκρη,Τ.Κ: 19007",Αθλητισμός,Αθήνα,,,,wefit,,,info@mvstennis.gr,https://www.facebook.com/MvsTennisSystems?fref=ts,MvsTennisSystems,1468495_557034757705320_197911770_n.jpg,,,,ΝέαΜάκρη,,,,,MVS Tennis Systems,athlitismos,tennis,TENNIS,YES,,,NO,http://www.mvstennissystems.com/el/,,19007
129,336,"Κράτητος 88,Νέα Σμύρνη",Πολεμικές τέχνες,Αθήνα,,,,fightsports.gr,,,,https://www.facebook.com/MuaythaiNeaSmyriniAthens,MuaythaiNeaSmyriniAthens,http://www.fightsports.gr/wp-content/uploads/2014/02/1266199_634071046614345_1735255253_o.jpg,,6981 580 714 - 6984 883 589,,,,,,,Muaythai Νέα Σμύρνη (Blue Dragon Team),polemikes-texnes,muay-thai,Muay Thai,YES,,,NO,,,
130,965,"Koυντουριώτη 13,Ηλιούπολη,Τ.Κ. 16342",Κλειστού Χώρου,Αθήνα,,,,wefit,,,mpasdekis_gym@hotmail.com,https://www.facebook.com/MpasdekisGym?fref=ts,MpasdekisGym,262179_113773258716031_5537069_n (1).jpg,,,,Ηλιούπολη,,,,,Mpasdekis Gym Prive,kleistou-xorou,personal-trainer,PERSONAL TRAINER,YES,,,NO,,,16342
131,775,"Αφροδίτης 76, Βάρκιζα",,Αθήνα,,,,wefit,,,dxatzi1979@hotmail.co.uk,https://www.facebook.com/MegasAlexandrosTennisAcademy/timeline,MegasAlexandrosTennisAcademy,logo (10).jpg,,,,Βάρκιζα,,,,,Bavelas & Chatzinikolaou Tennis Academy,#REF!,#REF!,,YES,,,NO,http://bcta.gr/,,
132,1544,"Αλεξάνδρου Παπαναστασίου 95(πρωην Β.Παύλου),Πειραιάς,Τ.Κ: 18533",ΚΑΤΑΔΥΤΙΚΑ ΚΕΝΤΡΑ,Αθήνα,,,,wefit,,,info@pozidis.gr,https://www.facebook.com/MediteranneanDiveCenter/timeline,MediteranneanDiveCenter,10734002_761801870573001_5355553794265906313_n.jpg,,,,Πειραιάς,,,,,Mediterranean Dive Center,#N/A,#REF!,,YES,,,NO,http://www.pozidis.gr/,,18533
133,244,"Βύρωνος & Αγίας Βαρβάρας 10,Αγία Βαρβάρα",Πολεμικές τέχνες,Αθήνα,,,,fightsports.gr,,,a.gy.smavridis@gmail.com,https://www.facebook.com/mauridisteam/,mauridisteam,http://www.fightsports.gr/wp-content/uploads/2018/02/mavridis-team-agis-logo.jpg,,6945 105 420,,,,,,,Αθλητικός Γυμναστικός Σύλλογος Αγίας Βαρβάρας (Mavridis Team),polemikes-texnes,#N/A,"MMA,Kickboxing,Boxing",YES,,,NO,,,
134,1475,"Άρεως 18, Π.Φάληρο, ΤΚ 17562",Κλειστού Χώρου,Αθήνα,,,,wefit,,,info@livestrongthegym.gr,https://www.facebook.com/livestrongthegym?ref=br_rs,livestrongthegym,νέα-εικόνα (1).jpg,,,,Π.Φάληρο,,,,,Livestrong,kleistou-xorou,pilates,PILATES,YES,,,NO,http://www.livestrongthegym.gr/#/HOME-01-00/,,17562
135,1283,"Ο.Α.Κ.Α, Αμαρουσίου Αρτέμιδος,Μαρούσι (Πλησίον ΗΣΑΠ ΕΙΡΗΝΗ)",MEDICAL,Αθήνα,,,,wefit,,,info@lifergo.gr,https://www.facebook.com/LifErgo?fref=ts,LifErgo,life-ergo-logo.jpg,,,,Μαρούσι(ΠλησίονΗΣΑΠΕΙΡΗΝΗ),,,,,Life - Ergo Εργομετρικό Κέντρο,#N/A,#REF!,,YES,,,NO,http://www.lifergo.gr/,,
136,271,"Βορείου Ηπείρου 2,Νίκαια",Πολεμικές τέχνες,Αθήνα,,,,fightsports.gr,,,championsathleticclub@gmail.com,https://www.facebook.com/lekakosclub/,lekakosclub,http://www.fightsports.gr/wp-content/uploads/2017/09/champions-athletic-club-logo-2.jpg,,6947 896 809,,,210 42 50 625,,,,Champions Athletic Club,polemikes-texnes,karate,Karate,YES,,,NO,,,
137,303,"1.Λεωφόρος Βεΐκου 121-123, Γαλάτσι - 2.Αγλαύρου 11, Κουκάκι - 3.Λεωφόρος Μαραθώνος 29, Παλλήνη - 4.Λ. Μεσογείων 483, Αγία Παρασκευή - 5.Ροδοπόλεως 66, Ελληνικό - 6.Φωκίωνος Νέγρη 30, Κυψέλη",Πολεμικές τέχνες,Αθήνα,,,,fightsports.gr,,,info@kravmagamentality.gr,https://www.facebook.com/kravmagamentality/?ref=ts&fref=ts,kravmagamentality,http://www.fightsports.gr/wp-content/uploads/2016/04/krav-maga-mentality.png,,6976 218 896 - 6980 095 168,,,,,,,Krav Maga Mentality,polemikes-texnes,krav-manga,Krav Maga,YES,,,NO,,,
138,254,"Εθνάρχου Μακαρίου 31,Περιστέρι",Πολεμικές τέχνες,Αθήνα,,,,fightsports.gr,,,info@kravmagahellas.com,https://www.facebook.com/KravMagaHellasFederationHkmf/,KravMagaHellasFederationHkmf,http://www.fightsports.gr/wp-content/uploads/2017/11/hellenic-krav-maga-federation-logo.jpg,,6987 222 631,,,2155 305 027,,,,Hellenic Krav Maga Federation (HKMF),polemikes-texnes,krav-manga,Krav Maga,YES,,,NO,,,
139,977,"Λεωφόρος Ηρακλείου 409,Ηράκλειο,Τ.Κ. 14121",Αθλητισμός,Αθήνα,,,,wefit,,,info@kozasports.gr,https://www.facebook.com/kozasportsclub,kozasportsclub,logo2.png,,,,Ηράκλειο,,,,,KOZA Sports,athlitismos,ping-pong,PING PONG,YES,,,NO,http://kozasports.gr/,,14121
140,1766,"Πλάτωνος 7,Χαλάνδρι,Τ.Κ:15234",ΘΑΛΑΣΣΙΑ ΣΠΟΡ,Αθήνα,,,,wefit,,,kitesurfinathens@gmail.com,https://www.facebook.com/KitesurfInAthens,KitesurfInAthens,1477905_516932755070635_301532375_n.png,,,,Χαλάνδρι,,,,,Kitesurf in Athens,#N/A,#REF!,,YES,,,NO,http://www.kitesurfinathens.gr/,,:15234
141,319,"Ελ.Βενιζέλου & Χατζηδάκη7,Ελευσίνα",Πολεμικές τέχνες,Αθήνα,,,"Muay Thai,Kickboxing,Tae Kwon Do",fightsports.gr,,,x.xatzisaselefsis@hotmail.com,https://www.facebook.com/KickBoxingxatzisteamelefsina/timeline,KickBoxingxatzisteamelefsina,http://www.fightsports.gr/wp-content/uploads/2015/08/elefsis-logo.jpg,,6947 076 150 - 6982 099 883,,,210 55 61 724,,,,Α.Σ ΕΛΕΥΣΙΣ,polemikes-texnes,#REF!,,YES,,,NO,,,
142,947,"Οζόλων 1, Ζωγράφου,T.K. 15771",Πολεμικές τέχνες,Αθήνα,,,,wefit,,,astratis2@gmail.com,https://www.facebook.com/KickBoxing.Zografou/timeline,KickBoxing.Zografou,1904109_501672876618485_693631792_n.jpg,,,,Ζωγράφου,,,,,Fighting Spirit kick boxing club Ζωγράφου,polemikes-texnes,#REF!,,YES,,,NO,http://fighting-spirit-club.blogspot.gr/,,15771
143,1052,"Ακτής & Λητούς, Καβούρι, ΤΚ 16671",Αθλητισμός,Αθήνα,,,,wefit,,,info@kavouritennisclub.gr,https://www.facebook.com/kavouritennisclub.gr,kavouritennisclub.gr,logo.bmp,,,,Καβούρι,,,,,Kavouri Tennis Club,athlitismos,tennis,TENNIS,YES,,,NO,http://kavouritennisclub.gr/,,16671
144,158,ΟΑΚΑ-ΚΟΛΥΜΒΗΤΗΡΙΟ (ΑΙΘΟΥΣΑ ΣΥΓΧΡΟΝΙΣΜΕΝΗΣ ΚΟΛΥΜΒΗΣΗΣ ΔΙΠΛΑ ΣΤΟ ΑΝΑΨΥΚΤΗΡΙΟ),Πολεμικές τέχνες,Αθήνα,,,,wefit,,,,https://www.facebook.com/karatewayoaka?fref=ts,karatewayoaka,1231650_515906378486751_1085423665_n.jpg,,,,,,,,,Α.Σ. Αρμονία,polemikes-texnes,#REF!,,YES,,,NO,http://karatewayoaka.com/,,
145,359,"Κηφισίας 37,Μαρούσι",Πολεμικές τέχνες,Αθήνα,,,,fightsports.gr,,,,https://www.facebook.com/karatewayoaka,karatewayoaka,http://www.fightsports.gr/wp-content/uploads/2013/11/karateway_oaka.png,,6946 754 570,,,210 80 53 202,,,,Αθλητικός Σύλλογος Καράτε «Αρμονία»,polemikes-texnes,karate,Karate,YES,,,NO,,,
146,315,"Λ. Ηρώων Πολυτεχνείου 16, Πειραιάς",Πολεμικές τέχνες,Αθήνα,,,,fightsports.gr,,,info@karatepeiraias.gr,https://www.facebook.com/karatepeiraias,karatepeiraias,http://www.fightsports.gr/wp-content/uploads/2015/09/karate-peiraias-logo.jpg,,6944 214 589,,,2121 044 392,,,,Karate Peiraias,polemikes-texnes,karate,Karate,YES,,,NO,,,
147,1591,"Σεβαστείας και Ιθώμης,Περιστέρι,Τ.Κ 12134",Κλειστού Χώρου,Αθήνα,,,,wefit,,,,https://www.facebook.com/JoeWeiderGyms?fref=ts,JoeWeiderGyms,sociall_logo_negative_preview (4).jpg,,,,Περιστέρι,,,,,SOCIAL ARENAS,kleistou-xorou,#REF!,,YES,,,NO,http://www.joegyms.gr/,,12134
148,1388,"ΛΙΒΙΣΙΟΥ 62,ΝΕΑ ΜΑΚΡΗ,Τ.Κ.19005",Κλειστού Χώρου,Αθήνα,,,,wefit,,,,https://www.facebook.com/JoeWeiderGyms,JoeWeiderGyms,sociall_logo_negative_preview (7).jpg,,,,ΝΕΑΜΑΚΡΗ,,,,,Social Arenas,kleistou-xorou,#REF!,,YES,,,NO,http://www.joegyms.gr/,,19005
149,1076,"ΔΑΒΑΚΗ 37 & ΑΝΔΡΟΜΑΧΗΣ,ΚΑΛΛΙΘΕΑ,Τ.Κ.17673",Κλειστού Χώρου,Αθήνα,,,,wefit,,,,https://www.facebook.com/JoeWeiderGyms,JoeWeiderGyms,sociall_logo_negative_preview.jpg,,,,ΚΑΛΛΙΘΕΑ,,,,,Social Arenas kalithea,kleistou-xorou,#REF!,,YES,,,NO,http://www.joegyms.gr/,,17673
150,1127,"Λ.ΔΗΜΟΚΡΑΤΙΑΣ 17,ΚΕΡΑΤΣΙΝΙ,Τ.Κ. 18756",Κλειστού Χώρου,Αθήνα,,,,wefit,,,,https://www.facebook.com/JoeWeiderGyms,JoeWeiderGyms,sociall_logo_negative_preview (11).jpg,,,,ΚΕΡΑΤΣΙΝΙ,,,,,Social Arenas Keratsini,kleistou-xorou,#REF!,,YES,,,NO,http://www.joegyms.gr/,,18756
151,1297,"Π.ΤΣΑΛΔΑΡΗ 24,ΜΕΛΙΣΣΙΑ.Τ.Κ 15127",Κλειστού Χώρου,Αθήνα,,,,wefit,,,,https://www.facebook.com/JoeWeiderGyms,JoeWeiderGyms,sociall_logo_negative_preview (1).jpg,,,,ΜΕΛΙΣΣΙΑ.Τ.Κ15127,,,,,Social Arenas Melissia,kleistou-xorou,#REF!,,YES,,,NO,http://www.joegyms.gr/,,
152,1380,"ΕΛ.ΒΕΝΙΖΕΛΟΥ 169,ΝΕΑ ΕΡΥΘΡΑΙΑ,Τ.Κ 14671",Κλειστού Χώρου,Αθήνα,,,,wefit,,,,https://www.facebook.com/JoeWeiderGyms,JoeWeiderGyms,sociall_logo_negative_preview (6).jpg,,,,ΝΕΑΕΡΥΘΡΑΙΑ,,,,,Social Arenas Nea Erythraia,kleistou-xorou,#REF!,,YES,,,NO,http://www.joegyms.gr/,,14671
153,1524,"ΓΡ.ΛΑΜΠΡΑΚΗ 87,ΠΕΙΡΑΙΑΣ,Τ.Κ. 18534",Κλειστού Χώρου,Αθήνα,,,,wefit,,,,https://www.facebook.com/JoeWeiderGyms,JoeWeiderGyms,sociall_logo_negative_preview (2).jpg,,,,ΠΕΙΡΑΙΑΣ,,,,,Social Arenas Pireas,kleistou-xorou,#REF!,,YES,,,NO,http://www.joegyms.gr/,,18534
154,287,"Θησέως 7α,Καλλιθέα",Πολεμικές τέχνες,Αθήνα,,,"ΒΟΧΕ SAVATE,Kickboxing,Boxing",fightsports.gr,,,teamioannidis@gmail.com,https://www.facebook.com/ioannidis.fighting.team,ioannidis.fighting.team,http://www.fightsports.gr/wp-content/uploads/2016/11/ioannidis-team-logo.jpg,,6949 401 427,,,210 92 36 791,,,,Ioannidis Team,polemikes-texnes,#REF!,,YES,,,NO,,,
155,1753,"Ιθακής 5,Χαϊδάρι,Τ.Κ: 12461",Πολεμικές τέχνες,Αθήνα,,,,wefit,,,,https://www.facebook.com/inikites,inikites,524691_386375878161496_1198257669_n.png,,,,Χαϊδάρι,,,,,Α.Σ. Οι Νικητές,polemikes-texnes,#REF!,,YES,,,NO,,,12461
156,255,"Σκουφά 43,Αχαρνές",Πολεμικές τέχνες,Αθήνα,,,"Wing Chun,Muay Thai",fightsports.gr,,,itsinari@yahoo.gr,https://www.facebook.com/imbaacharneshellas/,imbaacharneshellas,http://www.fightsports.gr/wp-content/uploads/2017/11/muay-boran-acharnes-logo.jpg,,,,,Κιν.: 6978 797 194,,,,Imba Muay Boran Acharnes,polemikes-texnes,#REF!,,YES,,,NO,,,
157,1422,"Πράσινου Λόφου και Μπιζανίου 44,Νέο Ηράκλειο Αττικής,Τ.Κ 14122",Κλειστού Χώρου,Αθήνα,,,,wefit,,,info@ileanaspilates.gr,https://www.facebook.com/ileanaspilateshouse?fref=ts,ileanaspilateshouse,10676306_282559718604804_2339323589415077425_n.jpg,,,,ΝέοΗράκλειοΑττικής,,,,,ileana's pilates house,kleistou-xorou,pilates,Pilates,YES,,,NO,http://www.ileanaspilates.gr/,,14122
158,1734,"Ολυμπιονικών 220 & Λυκούργου, Φάρος Ψυχικού, Τ.Κ. 15451",Κλειστού Χώρου,Αθήνα,,,,wefit,,,hotyogaathens3@gmail.com,https://www.facebook.com/HOTYOGAATHENS?fref=ts,HOTYOGAATHENS,psyhiko7.jpg,,,,ΦάροςΨυχικού,,,,,HOT YOGA,kleistou-xorou,yoga,Yoga,YES,,,NO,http://www.hot-yoga.gr/,,15451
159,919,"Λ. Βουλιαγμένης & Παπαφλέσσα 1α, Ελληνικό, ΤΚ 16777",Κλειστού Χώρου,Αθήνα,,,,wefit,,,info@hippocampus.gr,https://www.facebook.com/hippocampus.fitnessclub?fref=ts,hippocampus.fitnessclub,logo (62).jpg,,,,Ελληνικό,,,,,Hippocampus Fitness Club,kleistou-xorou,gym,Γυμναστήριο,YES,,,NO,http://www.hippocampus.gr/,,16777
160,296,"Κρέμου 53,Καλλιθέα",Πολεμικές τέχνες,Αθήνα,,,"Ju Jitsu,Krav Maga,Muay Thai,MMA",fightsports.gr,,,kamishinryuhellas@yahoo.com,https://www.facebook.com/HellasdojoMoschonas/,HellasdojoMoschonas,http://www.fightsports.gr/wp-content/uploads/2014/02/181246_284930598319706_1294105599_n.jpg,,6970 885 354,,,2177 346 052,,,,Α.Σ. Δράκος – Moschonas Team,polemikes-texnes,#REF!,,YES,,,NO,,,
161,1474,"Λ. Αμφιθέας 103 , Π.Φάληρο , ΤΚ 17564",Κλειστού Χώρου,Αθήνα,,,,wefit,,,heartbeat.athens@gmail.com,https://www.facebook.com/heartbeattrainingstudio?fref=ts,heartbeattrainingstudio,10169448_459571024189573_7740639371759656581_n.jpg,,,,Π.Φάληρο,,,,,Heartbeat Training Studio,kleistou-xorou,gym,Γυμναστήριο,YES,,,NO,http://www.heartbeat-athens.gr/,,17564
162,1379,"Αναξαγόρα 13, Νεα Eρυθραία, TK 14671",Κλειστού Χώρου,Αθήνα,,,,wefit,,,info@healthcure.gr,https://www.facebook.com/healthcure.gr,healthcure.gr,logo (1).jpg,,,,ΝεαEρυθραία,,,,,Healthcure,kleistou-xorou,gym,Γυμναστήριο,YES,,,NO,http://healthcure.gr/,,14671
163,1137,"Γρηγορίου Λαμπράκη 337,Κερατσίνι,Τ.Κ: 18757",Κλειστού Χώρου,Αθήνα,,,,wefit,,,,https://www.facebook.com/GymRoyale?fref=ts,GymRoyale,10489688_542618399194598_755385392149318059_n.png,,,,Κερατσίνι,,,,,Gym Royale,kleistou-xorou,gym,Γυμναστήριο,YES,,,NO,http://gymroyale.gr/,,18757
164,1381,"Εργασίας 15, Νέα Ιωνία, ΤΚ 14234",Κλειστού Χώρου,Αθήνα,,,,wefit,,,info@golden-gym.gr,https://www.facebook.com/GymGolden?fref=ts,GymGolden,402975_381961838484264_438369505_n (2).jpg,,,,ΝέαΙωνία,,,,,Golden Gym Νέα ιωνία,kleistou-xorou,gym,Γυμναστήριο,YES,,,NO,http://www.golden-gym.gr/neaionia/,,14234
165,817,"Βεΐκου 35, Γαλάτσι, ΤΚ 11146",Κλειστού Χώρου,Αθήνα,,,,wefit,,,info@golden-gym.gr,https://www.facebook.com/GymGolden?fref=ts,GymGolden,402975_381961838484264_438369505_n (1).jpg,,,,Γαλάτσι,,,,,GOLDEN GYM,kleistou-xorou,gym,Γυμναστήριο,YES,,,NO,http://www.golden-gym.gr/,,11146
166,1205,"Κυψέλης 32, Κυψέλη, ΤΚ 11362",Κλειστού Χώρου,Αθήνα,,,,wefit,,,,https://www.facebook.com/GymGolden,GymGolden,402975_381961838484264_438369505_n.jpg,,,,Κυψέλη,,,,,GOLDEN GYM ΚΥΨΕΛΗ,kleistou-xorou,gym,Γυμναστήριο,YES,,,NO,http://www.golden-gym.gr/Kypseli/,,11362
167,883,"Σοφοκλή Βενιζέλου 30,Δάφνης,Τ.Κ:  17235",Πολεμικές τέχνες,Αθήνα,,,,wefit,,,dafni@shaolin.com.gr,https://www.facebook.com/greekshaolin/timeline,greekshaolin,1461678_162696607273172_1435858274_n.jpg,,,,Δάφνης,,,,,Shaolin Gongfu,polemikes-texnes,#REF!,,YES,,,NO,http://www.shaolin.com.gr/,,17235
168,1796,"Φανερωμένης 13,Χολαργος,Τ.Κ: 15561",Κλειστού Χώρου,Αθήνα,,,,wefit,,,gym@gogogym.gr,https://www.facebook.com/gogo.gym?fref=ts,gogo.gym,logo (1).png,,,,ΧΟΛΑΡΓΟΣ,,,,,Go-Go Gym,kleistou-xorou,gym,Γυμναστήριο,YES,,,NO,http://www.gogogym.gr/,,15561
169,144,,Κλειστού Χώρου,Αθήνα,,,,wefit,,,osoyogadina@yahoo.com,https://www.facebook.com/glyfada.osoyogastudios?fref=ts,glyfada.osoyogastudios,399945_254767164601764_114688657_n.jpg,,,,,,,,,Oso yoga,kleistou-xorou,yoga,Yoga,YES,,,NO,http://www.osoyogastudios.com/,,
170,678,"Λεωφ. Αλεξάνδρας 122, Αμπελόκηποι, Τ.Κ. 10471",Κλειστού Χώρου,Αθήνα,,,,wefit,,,info@personalstudio.gr,https://www.facebook.com/georgepapadimakis,georgepapadimakis,screen-shot-2014-12-01-at-34419-pm.png,,,,Αμπελόκηποι,,,,,Personal Studio by G.Papadimakis,kleistou-xorou,personal-trainer,Personal Trainer,YES,,,NO,http://personalstudio.gr/,,10471
171,936,"Βασ. Όλγας 1, Ζάππειο, ΤΚ 10557",Κλειστού Χώρου,Αθήνα,,,,wefit,,,fokianosevents@gmail.com,https://www.facebook.com/fokianossportspark/timeline,fokianossportspark,10171216_625060590911232_3627587240067198807_n.jpg,,,,Ζάππειο,,,,,Αθλητικό Πάρκο Φωκιανού (Fokianos Sport Park),kleistou-xorou,#REF!,,YES,,,NO,,,10557
172,1429,"Λαζάρου Σώχου 5,Νέο Ψυχικό,Τ.Κ. 11525",Κλειστού Χώρου,Αθήνα,,,,wefit,,,info@fitnesslab.gr,https://www.facebook.com/fitnesslab.gr?fref=ts,fitnesslab.gr,,,,,ΝέοΨυχικό,,,,,Fitness Lab,kleistou-xorou,crossfit,Cross Fit,YES,,,NO,http://fitnesslab.gr/site2/,,11525
173,1118,"Μιχ. Μωραϊτη 66, Κατεχάκη, Τ.Κ. 11525",Κλειστού Χώρου,Αθήνα,,,,wefit,,,info@georgepapadimakis.gr,https://www.facebook.com/fitnessclubpapadimakis,fitnessclubpapadimakis,papadimakis.jpg,,,,Κατεχάκη,,,,,Personal Group by G.Papadimakis,kleistou-xorou,personal-trainer,Personal Trainer,YES,,,NO,http://www.georgepapadimakis.gr/,,11525
174,1087,"Γρυπάρης 103 & Μενελάου, Καλλιθέα, ΤΚ 17672",,Αθήνα,,,,wefit,,,fitmebyioanna@yahoo.gr,https://www.facebook.com/fitmebyioanna,fitmebyioanna,1925329_595530060525755_886731998_n.jpg,,,,Καλλιθέα,,,,,FIT ME,#REF!,#REF!,,YES,,,NO,,,17672
175,322,"Βύρωνος 13,Κάτω Χαλάνδρι",Πολεμικές τέχνες,Αθήνα,,,,fightsports.gr,,,info@fightlab.gr,https://www.facebook.com/fightlabnakmuay?fref=ts,fightlabnakmuay,http://www.fightsports.gr/wp-content/uploads/2015/05/logo-fight-lab.jpg,,6936 869 768,,,210 67 77 944,,,,FIGHT LAB,polemikes-texnes,muay-thai,Muay Thai,YES,,,NO,,,
176,286,"Λεωφόρο Βεΐκου 117-119,Γαλάτσι (1ος όροφος)",Πολεμικές τέχνες,Αθήνα,,,"Muay Thai,Brazilian Jiu Jitsu,MMA,Kickboxing,Boxing",fightsports.gr,,,info@fightclubgalatsi.gr,https://www.facebook.com/fightclubgalatsi/?fref=ts,fightclubgalatsi,http://www.fightsports.gr/wp-content/uploads/2013/02/fc_logo_final2013.jpg,,6932 600 483,,,210 29 15 489,,,,Fight Club Central Gym Galatsi,polemikes-texnes,#REF!,,YES,,,NO,,,
177,816,"Λεωφόρος Βεϊκου 121 – 123, Γαλάτσι,T.K 111 47",Πολεμικές τέχνες,Αθήνα,,,,wefit,,,info@figthtclubgalatsi.gr,https://www.facebook.com/fightclubgalatsi,fightclubgalatsi,10334396_715898081793826_4404317514694289944_n.png,,,,Γαλάτσι,,,,,Fight Club Central Gym,polemikes-texnes,#REF!,,YES,,,NO,http://www.fightclubgalatsi.gr/,,11147
178,363,"1.Τατοΐου 80,Μεταμόρφωση - 2.Θηβών 326,Αιγάλεω - 3.Χρυσοστόμου Σμύρνης 101,Καμίνια",Πολεμικές τέχνες,Αθήνα,,,"Muay Thai,Kickboxing,Boxing",fightsports.gr,,,nikos7kritikos@hotmail.com,https://www.facebook.com/fightcampkritikos/?fref=ts,fightcampkritikos,http://www.fightsports.gr/wp-content/uploads/2013/06/230434_105156882905360_3024260_n.jpg,,6946 560 233,,,,,,,Kritikos Camp,polemikes-texnes,#REF!,,YES,,,NO,,,
179,165,,Αθλητισμός,Αθήνα,,,,wefit,,,,https://www.facebook.com/FencingClubGlyfada?fref=ts,FencingClubGlyfada,10612995_661282273970320_1037372966317888500_n.jpg,,,,,,,,,ΟΜΙΛΟΣ ΞΙΦΑΣΚΙΑΣ ΓΛΥΦΑΔΑΣ,athlitismos,fencing,Ξιφασκία,YES,,,NO,http://www.fencingclub.gr/,,
180,260,"Κοντού 21,Αθήνα",Πολεμικές τέχνες,Αθήνα,,,"Krav Maga,Kickboxing,Judo",fightsports.gr,,,judo.euathlos@gmail.com,https://www.facebook.com/euathlos/,euathlos,http://www.fightsports.gr/wp-content/uploads/2017/11/evathlos-logo.jpg,,6947 444 700,,,,,,,Α.Σ Τζούντο Εύαθλος,polemikes-texnes,#REF!,,YES,,,NO,,,
181,630,"Θηβών 357, Αιγάλεω, Τ.Κ 12244",Κλειστού Χώρου,Αθήνα,,,,wefit,,,info@entasisclub.gr,https://www.facebook.com/EntasisFitnessGym,EntasisFitnessGym,εντασισ.jpg,,,,Αιγάλεω,,,,,ENTASIS FITNESS CLUB,kleistou-xorou,gym,Γυμναστήριο,YES,,,NO,http://www.entasisclub.gr/,,12244
182,1122,"Αθλητικό κέντρο Αποστολοπούλου, Κάτω Χαλάνδρι, TK 15231",Αθλητισμός,Αθήνα,,,,wefit,,,vasdim1969@gmail.com,https://www.facebook.com/EnosiFilonAntisfairisisHalandriou/timeline,EnosiFilonAntisfairisisHalandriou,logo (15).jpg,,,,ΚάτωΧαλάνδρι,,,,,Ένωση Φίλων Αντισφαίρισης Χαλανδρίου - ΕΦΑΧ,athlitismos,tennis,TENNIS,YES,,,NO,,,15231
183,1352,"Ελ. Βενιζελου 181, Ν.Σμύρνη, 17123",Κλειστού Χώρου,Αθήνα,,,,wefit,,,,https://www.facebook.com/EMSfitness.bymihabodytec/?fref=ts,EMSfitness.bymihabodytec,13584836_10209935001551201_5956137350455465570_o.jpg,,,,Ν.Σμύρνη,,,,,ACE fitness,kleistou-xorou,personal-trainer,Personal Trainer,YES,,,NO,http://www.miha-bodytec.com/en/,,17123
184,1469,"Πανδρόσου 59, Π. Φαληρο, ΤΚ 17563",Κλειστού Χώρου,Αθήνα,,,,wefit,,,info@dynamo-kettlebells.com,https://www.facebook.com/dynamoclubfaliro/timeline,dynamoclubfaliro,logo (74).jpg,,,,Π.Φαληρο,,,,,Dynamo Club,kleistou-xorou,gym,Γυμναστήριο,YES,,,NO,http://dynamo-kettlebells.com/,,17563
185,1804,"Ξανθίππου και Θουκυδίδου,Χολαργός,Τ.Κ. 15561",Κλειστού Χώρου,Αθήνα,,,,wefit,,,info@dopap.gr,https://www.facebook.com/dopappapagouxolargou,dopappapagouxolargou,dopaplogo.png,,,,Χολαργός,,,,,ΔΗΜΟΤΙΚΟ ΓΥΜΝΑΣΤΗΡΙΟ ΧΟΛΑΡΓΟΥ,kleistou-xorou,#REF!,,YES,,,NO,http://www.dopap.gr/,,15561
186,282,"Κύπρου 70,Βύρωνας",Πολεμικές τέχνες,Αθήνα,,,,fightsports.gr,,,,https://www.facebook.com/DinamiVirona/,DinamiVirona,http://www.fightsports.gr/wp-content/uploads/2017/01/dinami-virona-logo.jpg,,6948 543 720,,,,,,,Αθλητικός Σύλλογος Δύναμη Βύρωνα,polemikes-texnes,#N/A,"Kickboxing,Karate",YES,,,NO,,,
187,1479,"Μάρκου Μπότσαρη 26-28, Π. Φάληρο, ΤΚ 17563",Κλειστού Χώρου,Αθήνα,,,,wefit,,,diaplasi@hotmail.com,https://www.facebook.com/diaplasigym.gr,diaplasigym.gr,66644_533347310021854_1449494813_n.jpg,,,,Π.Φάληρο,,,,,Υγεία και Διάπλαση Gym,kleistou-xorou,#REF!,,YES,,,NO,,,17563
188,314,"Ελ. Βενιζέλου 3Α & 33η,Ελληνικό (δίπλα στον σταθμό Μετρό Ελληνικού)",Πολεμικές τέχνες,Αθήνα,,,"Krav Maga,Muay Thai,Brazilian Jiu Jitsu,MMA,Boxing",fightsports.gr,,,info@diamondcamp.gr,https://www.facebook.com/diamond.camp.5/,diamond.camp.5,http://www.fightsports.gr/wp-content/uploads/2015/11/diamond-camp-logo.jpg,,,,,210 96 18 589,,,,Diamond Camp,polemikes-texnes,#REF!,,YES,,,NO,,,
189,1354,"Ελ. Βενιζέλου 95, Ν.Σμύρνη, ΤΚ 17123",Κλειστού Χώρου,Αθήνα,,,,wefit,,,dim.seloulis@gmail.com,https://www.facebook.com/crosstrainingclub?fref=ts,crosstrainingclub,logo (32).jpg,,,,Ν.Σμύρνη,,,,,Cross Training Club,kleistou-xorou,crossfit,Cross Fit,YES,,,NO,http://www.european-fitness.com/,,17123
190,917,"Ροδοπόλεως 66, Ελληνικό, TK16777",Κλειστού Χώρου,Αθήνα,,,,wefit,,,info@crossfitsouthfactory.gr,https://www.facebook.com/CrossfitSouthFactory,CrossfitSouthFactory,578252_200471363427882_883129319_n.jpg,,,,Ελληνικό,,,,,CrossFit South Factory,kleistou-xorou,crossfit,Cross Fit,YES,,,NO,http://www.crossfitsouthfactory.gr/#!/splash-page,,16777
191,1541,"Παπαστράτου 60 & Θερμοπυλών, Πειραιάς, ΤΚ 18545",Κλειστού Χώρου,Αθήνα,,,,wefit,,,team@boxpiraeus.gr,https://www.facebook.com/crossfitpiraeus?fref=ts,crossfitpiraeus,logo (36).jpg,,,,Πειραιάς,,,,,CrossFit Piraeus,kleistou-xorou,crossfit,Cross Fit,YES,,,NO,http://www.crossfitpiraeus.com/gym/,,18545
192,264,"Μόσχου 1 & Σκιάθου,Ηλιούπολη",Πολεμικές τέχνες,Αθήνα,,,,fightsports.gr,,,coriolanoscollege@gmail.com,https://www.facebook.com/coriolanoscollege/,coriolanoscollege,http://www.fightsports.gr/wp-content/uploads/2017/10/coriolanos.jpg,,210 97 32 344,,,,,,,Α.Σ Coriolanos,polemikes-texnes,#N/A,"Krav Maga,MMA,Kickboxing,Boxing",YES,,,NO,,,
193,963,"Σκιάθου 26 & Μόσχου 1, Ηλιούπολη, ΤΚ 16346",Πολεμικές τέχνες,Αθήνα,,,,wefit,,,coriolanoscollege@gmail.com,https://www.facebook.com/coriolanoscollege,coriolanoscollege,188290_334457883322756_92954993_n.jpg,,,,Ηλιούπολη,,,,,CORIOLANOS,polemikes-texnes,#REF!,,YES,,,NO,http://www.coriolanos.gr/,,16346
194,297,"17ης Νοεμβρίου 29,Χολαργός",Πολεμικές τέχνες,Αθήνα,,,"Πάλη,Grappling,MMA",fightsports.gr,,,chokelutalivre@gmail.com,https://www.facebook.com/chokelutalivre,chokelutalivre,http://www.fightsports.gr/wp-content/uploads/2016/08/choke-luta-livre-academy-logo.jpg,,6947 460 050,,,,,,,Choke Luta Livre Academy,polemikes-texnes,#REF!,,YES,,,NO,,,
195,304,"Αγίου Αντωνίου 78,Πάτημα Χαλανδρίου",Πολεμικές τέχνες,Αθήνα,,,"Kickboxing,Boxing",fightsports.gr,,,info@cfacademy.gr,https://www.facebook.com/Chatzichronoglou/timeline,Chatzichronoglou,http://www.fightsports.gr/wp-content/uploads/2016/04/Chatzichronoglou-Fight-Academy-CFA-logo.jpg,,6973 045 289,,,210 60 16 590,,,,Chatzichronoglou Fight Academy – CFA,polemikes-texnes,#REF!,,YES,,,NO,,,
196,668,"Κασταμονής 99α, Αλσούπολη, ΤΚ 14235",Πολεμικές τέχνες,Αθήνα,,,,wefit,,,caestusgym@yahoo.gr,https://www.facebook.com/CaestusGymByChristosTriantis,CaestusGymByChristosTriantis,logo (66).jpg,,,,Αλσούπολη,,,,,Caestus gym,polemikes-texnes,#REF!,,YES,,,NO,http://www.caestus.gr/,,14235
197,328,"Ευρυτανίας 51 & Βελεστίνου,Άγιος Δημήτριος",Πολεμικές τέχνες,Αθήνα,,,"Kickboxing,Boxing",fightsports.gr,,,bullsfightacademy@gmail.com,https://www.facebook.com/BullsFightAcademy/timeline,BullsFightAcademy,http://www.fightsports.gr/wp-content/uploads/2015/02/bulls-fight-academy-logo.png,,,,,Κιν.: 6932 270 623 - 6987 612 001,,,,Bulls Fight Academy,polemikes-texnes,#REF!,,YES,,,NO,,,
198,1246,"Λ. Αμαρουσίου 58, Λυκόβρυση, ΤΚ 141 23",Κλειστού Χώρου,Αθήνα,,,,wefit,,,c.basdekis@hotmail.com,https://www.facebook.com/BTSPEFKIS,BTSPEFKIS,logo (37).jpg,,,,Λυκόβρυση,,,,,Body trainer,kleistou-xorou,gym,Γυμναστήριο,YES,,,NO,,,14123
199,895,"Ρήγα Φεραιου & Κουντουριωτου,Δραπετσωνα,Τ.Κ 18648",Πολεμικές τέχνες,Αθήνα,,,,wefit,,,alekospapaiosif@gmail.com,https://www.facebook.com/boxingacademy.gr?ref=ts&fref=ts,boxingacademy.gr,10436341_958348014194323_7026729709300660872_n.jpg,,,,ΔΡΑΠΕΤΣΩΝΑ,,,,,Boxing academy,polemikes-texnes,boxing,Boxing,YES,,,NO,,,18648
200,1803,"Λεωφόρος Μεσογείων 269,Χολαργός,Τ.Κ: 15231",Πολεμικές τέχνες,Αθήνα,,,,wefit,,,gdivanity@gmail.com,https://www.facebook.com/BoreiosAetos,BoreiosAetos,north-eagle-logo_web.jpg,,,,Χολαργός,,,,,Α.Σ. ΒΟΡΕΙΟΣ ΑΕΤΟΣ,polemikes-texnes,#REF!,,YES,,,NO,http://www.kungfugreece.blogspot.gr/,,15231
201,916,"Πλάτωνος 7, Ελληνικό, ΤΚ 16777",Κλειστού Χώρου,Αθήνα,,,,wefit,,,e_rizou@hotmail.com,https://www.facebook.com/bodytone.gr,bodytone.gr,10390452_909316672418148_1955950847809184999_n.png,,,,Ελληνικό,,,,,Bodytone,kleistou-xorou,pilates,Pilates,YES,,,NO,http://bodytone.gr/,,16777
202,1716,"25ης Μαρτίου 2,Ταύρος,Τ.Κ.17778",Κλειστού Χώρου,Αθήνα,,,,wefit,,,info@bodyfitgym.gr,https://www.facebook.com/bodyfitgym.tavros?fref=ts,bodyfitgym.tavros,screen-shot-2014-11-27-at-25201-pm.jpg,,,,Ταύρος,,,,,Bodyfit,kleistou-xorou,gym,Γυμναστήριο,YES,,,NO,http://www.bodyfitgym.gr/index.html,,17778
203,1353,"Ομήρου 23, Ν.Σμύρνη, ΤΚ 17121",Κλειστού Χώρου,Αθήνα,,,,wefit,,,trigas_g@yahoo.gr,https://www.facebook.com/bodyandsoulgym.gr,bodyandsoulgym.gr,logo (86).jpg,,,,Ν.Σμύρνη,,,,,Body & Soul,kleistou-xorou,gym,Γυμναστήριο,YES,,,NO,http://neasmyrni.topgreekgyms.gr/,,17121
204,250,"Σουρή 20,Περιστέρι",Πολεμικές τέχνες,Αθήνα,,,"Muay Thai,Brazilian Jiu Jitsu,Boxing,Judo",fightsports.gr,,,phaedrav@gmail.com,https://www.facebook.com/bjjpirateshq/,bjjpirateshq,http://www.fightsports.gr/wp-content/uploads/2017/12/pirates-headquarters-logo.jpg,,6980 491 497,,,,,,,Pirates Headquarters,polemikes-texnes,#REF!,,YES,,,NO,,,
205,329,"1.Ελπίδος 10,Αγία Παρασκευή - 2.Σόλωνος 22,Χαλάνδρι (kids battle arena)",Πολεμικές τέχνες,Αθήνα,,,"Γυμναστική,Muay Thai,Brazilian Jiu Jitsu,MMA,Kickboxing,Boxing",fightsports.gr,,,info@battlearena.gr,https://www.facebook.com/battlearena.ag.paraskevi/timeline,battlearena.ag.paraskevi,http://www.fightsports.gr/wp-content/uploads/2015/02/battle-arena-logo.jpg,,6981 030 417,,,210 63 95 992,,,,Battle Arena,polemikes-texnes,#REF!,,YES,,,NO,,,
206,1417,"Σελήνης 25,Νέο Ηράκλειο,Τ.Κ: 14572",Πολεμικές τέχνες,Αθήνα,,,,wefit,,,info@balios.gr,https://www.facebook.com/BaliosTeam,BaliosTeam,balios_logo_clean.png,,,,ΝέοΗράκλειο,,,,,Α.Ο. ΜΠΑΛΙΟΣ,polemikes-texnes,#REF!,,YES,,,NO,http://www.balios.gr/,,14572
207,1765,"Δουκίσσης Πλακεντίας 8, Χαλάνδρι, TK 15234",Κλειστού Χώρου,Αθήνα,,,,wefit,,,info@axiongym.gr,https://www.facebook.com/axionfitnessclub,axionfitnessclub,logo (22).jpg,,,,Χαλάνδρι,,,,,Axion fitness club,kleistou-xorou,gym,Γυμναστήριο,YES,,,NO,http://axiongym.gr/,,15234
208,1752,"Αϊδινίου 21, Χαϊδάρι, Τ.Κ 12462",,Αθήνα,,,,wefit,,,axia.fencing@gmail.com,https://www.facebook.com/axiafencing?ref=stream&fref=nf,axiafencing,logo1.png,,,,Χαϊδάρι,,,,,Α.Ξ.Ι.Α ΑΚΑΔΗΜΙΑ ΞΙΦΑΣΚΙΑΣ,#REF!,#REF!,,YES,,,NO,http://www.axiafencing.gr/,,12462
209,1540,"Σ.Ε.Φ.(Ολυμπιακό Προπονητήριο Beach Volley),Πειραιάς,Τ.Κ. 18547",Αθλητισμός,Αθήνα,,,,wefit,,,info@atticabeachvolley.gr,https://www.facebook.com/AtticaBeachVolleyClub,AtticaBeachVolleyClub,538483_313639825371046_2006619110_n.jpg,,,,Πειραιάς,,,,,Attica Beach Volley,athlitismos,#REF!,Volley,YES,,,NO,http://www.atticabeachvolley.com/,,18547
210,1636,"Κων. Βάρναλη 52, Πολύδροσο Χαλανδρίου, TK 15233",Πολεμικές τέχνες,Αθήνα,,,,wefit,,,,https://www.facebook.com/atraposhellas?fref=ts,atraposhellas,logo (25).jpg,,,,ΠολύδροσοΧαλανδρίου,,,,,Α.Σ. ΑΤΡΑΠΟΣ,polemikes-texnes,#REF!,,YES,,,NO,http://www.atraposhalandri.gr/,,15233
211,1043,"Μάτσα 15,Κ. Κηφισιά,Τ.Κ. 14564",Κλειστού Χώρου,Αθήνα,,,,wefit,,,antoniszervas@a2zfitness.gr,https://www.facebook.com/atozfitness,atozfitness,10455298_718195984882923_1299729805186853020_n.png,,,,Κ.Κηφισιά,,,,,A2Z fitness,kleistou-xorou,gym,Γυμναστήριο,YES,,,NO,http://www.a2zfitness.gr/?lang=el,,14564
212,675,"Λουίζης Ριαν Κούρ 65-67,Αμπελόκηποι,Τ.Κ. 11523",Κλειστού Χώρου,Αθήνα,,,,wefit,,,,https://www.facebook.com/AthensYoga,AthensYoga,229181_399693323428864_1802617104_n.jpg,,,,Αμπελόκηποι,,,,,Athens Yoga,kleistou-xorou,gym,Γυμναστήριο,YES,,,NO,http://athensyoga.gr/index.html,,11523
213,320,"Μίνωος 3,Νέος Κόσμος",Πολεμικές τέχνες,Αθήνα,,,"Kyuk Too Ki,Muay Thai,Kickboxing,Tae Kwon Do",fightsports.gr,,,lagosbill@windowslive.com,https://www.facebook.com/asProtathlitesLagosTeam,asProtathlitesLagosTeam,http://www.fightsports.gr/wp-content/uploads/2015/08/as-polemikon-texnon-protathlites-logo.jpg,,6978 858 590 - 6987 294 562,,,210 92 70 912,,,,Α.Σ Πολεμικών Τεχνών Πρωταθλητές (LAGOS V. TEAM),polemikes-texnes,#REF!,,YES,,,NO,,,
214,1273,"Αλεξάνδρου Παπανάστασιου 16,Μαρούσι,Τ.Κ: 15126",Πολεμικές τέχνες,Αθήνα,,,,wefit,,,asktisacademy@yahoo.gr,https://www.facebook.com/askitisteam/timeline,askitisteam,10357446_762334303804781_4181218550220552391_n.jpg,,,,Μαρούσι,,,,,Askitis Boxing-Kick Boxing Academy(Α.Ο. Διαγορας),polemikes-texnes,#REF!,,YES,,,NO,,,15126
215,1764,"Μεταμορφώσεως 51, Χαλάνδρι,T.K 15234,",Πολεμικές τέχνες,Αθήνα,,,,wefit,,,,https://www.facebook.com/ashtangayoga.halandri?fref=ts,ashtangayoga.halandri,logo-square.jpg,,,,Χαλάνδρι,,,,,Ashtanga Yoga Halandri,polemikes-texnes,#REF!,,YES,,,NO,http://katerinazougrou.wix.com/ashtangayogahalandri,,15234
216,818,"Κουντουριώτου 98,Γαλάτσι,Τ.Κ 11146",Πολεμικές τέχνες,Αθήνα,,,,wefit,,,Triantafyllis@gmail.com,https://www.facebook.com/AsGalatsioueDoxaTriantafyllisTeam?fref=ts,AsGalatsioueDoxaTriantafyllisTeam,10351589_724589667614965_975533429894985422_n (1).jpg,,,,Γαλάτσι,,,,,Triantafyllis Team,polemikes-texnes,#REF!,,YES,,,NO,,,11146
217,1592,"Κωνσταντινουπόλεως 87 & Αρκαδίου 89, Περιστέρι, Τ.Κ 13134",Πολεμικές τέχνες,Αθήνα,,,,wefit,,,atlas_peristeriou@yahoo.gr,https://www.facebook.com/AsAtlantasPeristeriou,AsAtlantasPeristeriou,atlanta_logo.jpg,,,,Περιστέρι,,,,,Α.Σ ΑΤΛΑΝΤΕΣ ΠΕΡΙΣΤΕΡΙΟΥ,polemikes-texnes,#REF!,,YES,,,NO,http://www.as-atlantas.gr/,,13134
218,298,"Βορείου Ηπείρου 21,Περιστέρι Ολυμπιακό Κέντρο Πυγμαχίας",Πολεμικές τέχνες,Αθήνα,,,"Capoeira,Kickboxing,Boxing",fightsports.gr,,,stef.boxing@gmail.com,https://www.facebook.com/aristoteleio.boxing/,aristoteleio.boxing,http://www.fightsports.gr/wp-content/uploads/2016/08/logo-aristoteleio-gspp.jpg,,6945 087 607,,,,,,,Αριστοτέλειο Πυγμαχικός Γ.Σ Περιστερίου,polemikes-texnes,#REF!,,YES,,,NO,,,
219,309,"Ηρακλείτου & Τομπάζη 89,Αιγάλεω",Πολεμικές τέχνες,Αθήνα,,,"Grappling,Brazilian Jiu Jitsu,Kickboxing,Boxing",fightsports.gr,,,fofonkinio@hotmail.com,https://www.facebook.com/arcanefighthood1/timeline,arcanefighthood1,http://www.fightsports.gr/wp-content/uploads/2016/03/arcane-fighthood-logo-1.jpg,,6931 182 637,,,,,,,Arcane Fighthood,polemikes-texnes,#REF!,,YES,,,NO,,,
220,161,OAKA,Αθλητισμός,Αθήνα,,,,wefit,,,,https://www.facebook.com/AoOkeanos,AoOkeanos,screen-shot-2014-12-09-at-30157-pm.png,,,,,,,,,Αθλητικός Όμιλος Ωκεανός,athlitismos,kithara,Κολύμβηση,YES,,,NO,http://www.aooc.gr/index.asp,,
221,160,,Αθλητισμός,Αθήνα,,,,wefit,,,,https://www.facebook.com/aoaptennisclub,aoaptennisclub,1524698_631255583601856_716262540_n.png,,,,,,,,,ΑΘΛΗΤΙΚΟΣ ΟΜΙΛΟΣ ΑΝΤΙΣΦΑΙΡΙΣΗΣ ΠΑΠΑΓΟΥ,athlitismos,tennis,Tennis,YES,,,NO,http://www.aoap.gr/,,
222,866,"Στοργής 2,Γλυφάδα,Τ.Κ. 16674",Αθλητισμός,Αθήνα,,,,wefit,,,archery.academy.greece@gmail.com,https://www.facebook.com/AkademiaToxobolias/timeline,AkademiaToxobolias,1175516_462496107181177_1257313703_n.jpg,,,,Γλυφάδα,,,,,ΑΚΑΔΗΜΙΑ ΤΟΞΟΒΟΛΙΑΣ,athlitismos,toxovolia,Τοξοβολία,YES,,,NO,http://www.fightway.gr/texnes/toxovolia,,16674
223,914,"Θράκης 30, Ελληνικό, TK 16777",Πολεμικές τέχνες,Αθήνα,,,,wefit,,,info@aikidoacademy.gr,https://www.facebook.com/aikidoacademy.gr/timeline,aikidoacademy.gr,logo (27).jpg,,,,Ελληνικό,,,,,Aikido Academy,polemikes-texnes,#REF!,,YES,,,NO,http://www.aikidoacademy.gr/el/home,,16777
224,1198,"Λεωφόρος Κρυονερίου 53,Κρυονέρι,Τ.Κ:  14568",Πολεμικές τέχνες,Αθήνα,,,,wefit,,,atzitioz@hotmail.com,https://www.facebook.com/aiantas2005,aiantas2005,1623658_738473372874052_7024636099182292725_n.jpg,,,,Κρυονέρι,,,,,Aiantas Fitness Club,polemikes-texnes,#REF!,,YES,,,NO,,,14568
225,762,"Δεκελείας 193,Αχαρναί,Τ.Κ:  13671",Αθλητισμός,Αθήνα,,,,wefit,,,info@acharnaitennis.gr,https://www.facebook.com/acharnaitennis?fref=ts,acharnaitennis,400709_286763204707840_179435588_n.jpg,,,,Αχαρναί,,,,,Acharnai Tennis Academy,athlitismos,tennis,Tennis,YES,,,NO,http://www.acharnaitennisacademy.gr/,,13671
226,344,"Μαβίλη 3,Παλαιό Φάληρο",Πολεμικές τέχνες,Αθήνα,,,,fightsports.gr,,,a.s.zanshin@gmail.com,https://www.facebook.com/a.s.zanshin/timeline,a.s.zanshin,http://www.fightsports.gr/wp-content/uploads/2014/08/logo-zanshin-new.jpg,,6932 127 529 - 6986 125 180,,,2114 044 453,,,,Αθλητικός Σύλλογος Zanshin,polemikes-texnes,karate,Karate,YES,,,NO,,,
227,591,"Υπολοχαγού Καπετανάκη 53, Άγιος Δημήτριος, ΤΚ 17342",Πολεμικές τέχνες,Αθήνα,,,,wefit,,,thebrotherhoodmft@gmail.com,http://www.facebook.com/TheBrotherhooMFT,TheBrotherhooMFT,1175446_627686877262264_1869250256_n.jpg,,,,ΆγιοςΔημήτριος,,,,,The Brotherhood,polemikes-texnes,#REF!,,YES,,,NO,,,17342
228,366,"Κλείτορος 3, Περιστέρι",Πολεμικές τέχνες,Αθήνα,,,"Thai Boxing,Kickboxing,Boxing",fightsports.gr,,,info@fightacademy.gr,http://www.facebook.com/martial.arts.athens/info?ref=ts#!/martial.arts.athens,martial.arts.athens,http://www.fightsports.gr/wp-content/uploads/2013/01/13348671_10208406937164112_1646601817_n.jpg,,697 2500678,,,,,,,Fight Academy,polemikes-texnes,#REF!,,YES,,,NO,,,
229,887,"Λ. Βάρης 15, Δίλοφο Βάρης, ΤΚ 16672",Πολεμικές τέχνες,Αθήνα,,,,wefit,,,geobukan@gmail.com,http://www.facebook.com/GeobukanBudoAcedemygbaGZantiotis?fref=ts,GeobukanBudoAcedemygbaGZantiotis,logo (21).jpg,,,,ΔίλοφοΒάρης,,,,,Geobukan,polemikes-texnes,#REF!,,YES,,,NO,http://geobukan.gr/home.php,,16672
230,1485,"Αντήνορος 31, Παγκράτι, ΤΚ 11634",Κλειστού Χώρου,Αθήνα,,,,wefit,,,valba@otenet.gr,http://www.facebook.com/flamingogymathens,flamingogymathens,flamingo_logo1.png,,,,Παγκράτι,,,,,Flamingo Fitness Club,kleistou-xorou,gym,Γυμναστήριο,YES,,,NO,http://flamingofitness.gr/,,11634
231,676,"Άρτης & Μπιζανίου 4, Αμπελόκηποι, ΤΚ 11523",Κλειστού Χώρου,Αθήνα,,,,wefit,,,info@centralfitnessgym.gr,http://www.facebook.com/CentralFitnessGym/info,CentralFitnessGym,1535027_793254657367309_949778407_n.jpg,,,,Αμπελόκηποι,,,,,Central Gym,kleistou-xorou,gym,Γυμναστήριο,YES,,,NO,http://www.centralfitnessgym.gr/,,11523
232,699,ΑΡΑΔΟΥ 5      ,Αθλητισμός,Αθήνα,,,,omospondia,,,info@posidonas-ilision.gr,https://www.facebook.com/posidonas.ilision/,posidonas.ilision,http://www.posidonas-ilision.gr/images/stories/logomedium.jpg,,,,Ανω Ιλίσια,(210) 7757231,,,,ΚΟΛΥΜΒΗΤΙΚΟΣ ΟΜΙΛΟΣ ΠΟΣΕΙΔΩΝ ΙΛΙΣΙΩΝ,athlitismos,kithara,Κολύμβηση,YES,,,NO,www.posidonas-ilision.gr,,
233,732,ΜΙΛΗΤΟΥ 2          ,Αθλητισμός,Αθήνα,,,,omospondia,,,anoaswim@gmail.com,www.facebook.com/anoargyroupolis.gr/,anoargyroupolis.gr,,,,,Αργυρούπολη,(210) 9623333,,,,ΑΘΛΗΤΙΚΟΣ ΝΑΥΤΙΚΟΣ ΟΜΙΛΟΣ ΑΡΓΥΡΟΥΠΟΛΗΣ (A.Ν.Ο.Α.) ,athlitismos,kithara,Κολύμβηση,YES,,,NO,,,
234,393,ΟΛΓΑΣ 6         ,Αθλητισμός,Αθήνα,,,,omospondia,,,,https://www.facebook.com/ethnikosgs.gr/,ethnikosgs.gr,,,,,,(210) 9242149,,,,ΕΘΝΙΚΟΣ ΓΥΜΝΑΣΤΙΚΟΣ ΣΥΛΛΟΓΟΣ,athlitismos,kithara,Κολύμβηση,YES,,,NO,www.ethnikosgs.gr,,
235,392,ΛΕΑΝΔΡΟΥ 37-39,Αθλητισμός,Αθήνα,,,,omospondia,,,info@aokolonou.gr,https://www.facebook.com/AoKolonou/,AoKolonou,,,,,,(210) 5148601,,,,ΑΘΛΗΤΙΚΟΣ ΟΜΙΛΟΣ ΚΟΛΩΝΟΥ,athlitismos,kithara,Κολύμβηση,YES,,,NO,www.aokolonou.gr,,
236,704,Αιγαίου Πελάγους 1    ,Αθλητισμός,Αθήνα,,,,omospondia,,,tritonasaoal@gmail.com,https://www.facebook.com/tritonasa.o/,tritonasa.o,,,,,Άνω Λιόσια,6976 787947,,,,ΤΡΙΤΩΝΑΣ ΑΘΛΗΤΙΚΟΣ ΟΜΙΛΟΣ ΑΝΩ ΛΙΟΣΙΩΝ,athlitismos,kithara,Κολύμβηση,YES,,,NO,,,
237,98,"Kolokotroni 72 & Vasileos Georgiou, 4th Floor, Pireas 185 35, Greece",Πολεμικές τέχνες,Αθήνα,,,,hunter.io,,,,https://www.facebook.com/TribeWorkout/,TribeWorkout,,,,,,21 3000 1584,,,,Tribe,polemikes-texnes,capoeira,Capoeira,YES,,,NO,http://www.thetribe.gr/,,
238,90,"Amfiaraou 59, Athina 104 42, Greece",Χορός,Αθήνα,,,,google-hunter,,,,https://el-gr.facebook.com/SpinTop.poledance/,SpinTop.poledance,,,,,,21 1012 2952,,,,SpinTop Athens Studio - Pole • Aerial • Dance • Fitness,xoros,#REF!,,YES,,,NO,http://www.spintopathens.gr/,,
239,105,"Ious 23, Athina 118 54, Greece",Πολεμικές τέχνες,Αθήνα,,,,hunter.io,,,,https://www.facebook.com/ShinkendoAthens,ShinkendoAthens,,,,,,697 303 0946,,,,"Shinkendo Athens - Japanese Swordsmanship, Aikibujutsu/Aikido, Bojutsu",polemikes-texnes,aikido,Aikido,YES,,,NO,http://www.shinkendo.gr/,,
240,87,"6, Voutsara 4, Athina 118 55, Greece",Χορός,Αθήνα,,,,google-hunter,,,info@selikanou.com,https://el-gr.facebook.com/studioselikanou/about,studioselikanou,,,,,,693 213 0805,,,,STUDIO SELI KANOU,xoros,#REF!,,YES,,,NO,http://www.selikanou.com/,,
241,72,"Imittou 119, Athina 116 33, Greece",Χορός,Αθήνα,,,,google-hunter,,,info@quickstep.gr,https://www.facebook.com/quickstep.danceschool?fref=ts,quickstep.danceschool,,,,,,21 0722 2340,,,,Quickstep Dance School,xoros,#REF!,,YES,,,NO,http://www.quickstep.gr/,,
242,88,"Klisovis 7, Athina 106 77, Greece",Χορός,Αθήνα,,,,google-hunter,,,,https://www.facebook.com/polessence.gr/,polessence.gr,,,,,,694 054 7575,,,,Polessence Pole Dance & Acrobatics Studio,xoros,#REF!,,YES,,,NO,http://www.polessence.gr/,,
243,78,"Agias Eleousis 5, Athina 105 54, Greece",Χορός,Αθήνα,,,,google-hunter,,,,https://el-gr.facebook.com/polejamathens/,polejamathens,,,,,,693 636 6880,,,,Pole Jam,xoros,#REF!,,YES,,,NO,http://www.polejam.gr/,,
244,390,Αρματωλών Κλεφτών 47,Αθλητισμός,Αθήνα,,,,omospondia,,,paoaquatics@gmail.com,https://www.facebook.com/PanathinaikosAO1908,PanathinaikosAO1908,,,,,,(210) 6444401,,,,ΠΑΝΑΘΗΝΑΪΚΟΣ ΑΘΛΗΤΙΚΟΣ ΟΜΙΛΟΣ,athlitismos,kithara,Κολύμβηση,YES,,,NO,http://www.panathinaikos1908.gr,,
245,665,Λ.Ποσειδώνος Β'Στάση  ,Αθλητισμός,Αθήνα,,,,omospondia,,,,https://www.facebook.com/N.O.K.Offshore/,N.O.K.Offshore,,,,,Άλιμος,(210)   9829878,,,,ΝΑΥΤΙΚΟΣ ΟΜΙΛΟΣ ΚΑΛΑΜΑΚΙΟΥ,athlitismos,kithara,Κολύμβηση,YES,,,NO,http://www.nok.com.gr/,,
246,86,"Λεωφόρος Συγγρού 57, Athina 117 45, Greece",Χορός,Αθήνα,,,,google-hunter,,,info@lasecta.gr,https://el-gr.facebook.com/lasectadc/,lasectadc,,,,,,21 0921 3313,,,,La Secta Dance Company,xoros,#REF!,,YES,,,NO,http://www.lasecta.gr/,,
247,71,"Omirou 55, Athina 106 72, Greece",Χορός,Αθήνα,,,,google-hunter,,,auditions@ksot.gr,https://www.facebook.com/nationalschoolofdance/,nationalschoolofdance,,,,,,21 0361 2263,,,,Κρατική Σχολή Ορχηστικής Τέχνης (ΚΣΟΤ),xoros,#REF!,,YES,,,NO,http://www.ksot.gr/,,
248,952,,Πολεμικές τέχνες,Αθήνα,,,,aikido.gr,,,,https://el-gr.facebook.com/HakushinkaiAthens/,HakushinkaiAthens,,,,,ΗΛΙΟΥΠΟΛΗ,,,,,Hakushinkai Dojo,polemikes-texnes,aikido,Aikido,YES,,,NO,http://www.hakushinkai-athens.gr/greek/home.html,,
249,101,"Archipelagous 88, Αθήνα 165 62, Greece",BABY,Αθήνα,,,,hunter.io,,,info@gorgoneskaimages.gr,http://www.facebook.com/GorgoneskaiMages,GorgoneskaiMages,,,,,,21 0960 6786,,,,Γοργόνες και Μάγκες,baby,baby-swimming,Baby Swimming,YES,,,NO,http://www.gorgoneskaimages.gr/,,
250,75,"Agias Eleousis 5, Athina 105 54, Greece",Χορός,Αθήνα,,,,google-hunter,,,info@gadala.gr,https://www.facebook.com/sxoli.xorou.oriental/,sxoli.xorou.oriental,,,,,,21 0321 1008,,,,GADALA ΕΞΕΙΔΙΚΕΥΜΕΝΕΣ ΣΧΟΛΕΣ ΧΟΡΟΥ ORIENTAL BELLY DANCE ΧΟΡΟΣ ΤΗΣ ΚΟΙΛΙΑΣ ΟΡΙΕΝΤΑΛ BELLYDANCING,xoros,#REF!,,YES,,,NO,http://www.gadala.gr/,,
251,94,"Leof. Mesogeion 186, Χολαργός, Αθήνα 155 61, Greece",Πολεμικές τέχνες,Αθήνα,,,,hunter.io,,,info@findhere.gr,http://www.facebook.com/ArteMovimento.gr,ArteMovimento.gr,,,,,,21 0654 5150,,,,Arte Movimento - Capoeira Athens,polemikes-texnes,capoeira,Capoeira,YES,,,NO,http://www.arte-movimento.gr/,,
252,80,"Kapeten Petroutsou 7, Athina 115 23, Greece",Χορός,Αθήνα,,,,google-hunter,,,info@elabrazotango.gr,https://www.facebook.com/elabrazotangoscholi,elabrazotangoscholi,,,,,,21 0644 4958,,,,El Abrazo,xoros,#REF!,,YES,,,NO,http://www.elabrazotango.gr/,,
253,95,"Skouze 5, Athina 105 60, Greece",Πολεμικές τέχνες,Αθήνα,,,,hunter.io,,,,https://www.facebook.com/capoeiraAthens/?fref=ts,capoeiraAthens,,,,,,,,,,Barracão da Capoeira Athens,polemikes-texnes,capoeira,Capoeira,YES,,,NO,http://www.barracaodacapoeira.gr/,,
254,91,"Fthiotidos 24, Athina 115 23, Greece",Χορός,Αθήνα,,,,google-hunter,,,,https://el-gr.facebook.com/AthensLindyHopSwingDancing/,AthensLindyHopSwingDancing,,,,,,,,,,Athens Lindy Hop | Μαθήματα Swing Χορού,xoros,#REF!,,YES,,,NO,http://www.athenslindyhop.com/,,
255,92,"Kallirrois 10, Athina 117 43, Greece",Πολεμικές τέχνες,Αθήνα,,,,hunter.io,,,info@athenscapoeira.gr,https://www.facebook.com/athenscapoeira.gr/,athenscapoeira.gr,,,,,,693 879 3131,,,,Athens Center of Capoeira Corpo Fechado,polemikes-texnes,capoeira,Capoeira,YES,,,NO,http://www.athenscapoeira.gr/,,
256,524,,Πολεμικές τέχνες,Αθήνα,,,,aikido.gr,,,,https://www.facebook.com/jutaidokan,jutaidokan,,,,, ΑΓΙΑ ΠΑΡΑΣΚΕΥΗ-μαιν,,,,,Jutaidokan,polemikes-texnes,aikido,Aikido,YES,,,NO,http://www.aikidojutaidokan.gr/?lang=el,,
257,103,"Mesogion 151, Marousi 151 26, Greece",BABY,Αθήνα,,,,hunter.io,,,,http://www.facebook.com/SportsCenterDais,SportsCenterDais,,,,,,21 0618 6050,,,,Dais Athletic Center Amarousio,baby,baby-swimming,Baby Swimming,YES,,,NO,http://sports.daiscenter.gr/,,
258,102,"5 Sekeri & Kanari, Athina 106 71, Greece",BABY,Αθήνα,,,,hunter.io,,,maroussi@holmesplace.gr,http://www.facebook.com/holmesplacegreece?fref=ts,holmesplacegreece,,,,,,21 0747 5600,,,,Holmes Place East Med B.V.,baby,baby-swimming,Baby Swimming,YES,,,NO,http://holmesplace.gr/,,
259,708,"Neigi 17, Athina 111 43, Greece",Πολεμικές τέχνες,Αθήνα,,,,hunter.io,,,,https://el-gr.facebook.com/inochikan/,inochikan,,,,,ΑΝΩ ΠΑΤΗΣΙΑ-main,,,,,Hellenic Inochikan Aikikai,polemikes-texnes,aikido,Aikido,YES,,,NO,http://dojo.inochikan.com/index.php/gr/,,
260,79,"Klisouras 20, Agii Anargiri 135 61, Greece",Χορός,Αθήνα,,,,google-hunter,,,info@apollondancestudio.gr,http://el-gr.facebook.com/pages/Apollon-Dance-Studio/260252274027397,Apollon-Dance-Studio,,,,,,21 0269 2502,,,,Apollon Dance Studio,xoros,#REF!,,YES,,,NO,http://apollondancestudio.gr/,,
261,637,Ν.Πλαστήρα 20 ,Αθλητισμός,Αθήνα,,,,omospondia,,,ao.aigaleo@gmail.com     ,https://www.facebook.com/AOAigaleoOfficial/,AOAigaleoOfficial,,,,,Αιγάλεω,(210) 5982800,,,,Α.Ο. ΑΙΓΑΛΕΩ,athlitismos,kithara,Κολύμβηση,YES,,,NO,http://aoaigaleo.gr/%CE%BA%CE%BF%CE%BB%CF%8D%CE%BC%CE%B2%CE%B7%CF%83%CE%B7/ ,,
262,557,,Πολεμικές τέχνες,Αθήνα,,,,aikido.gr,,,,https://el-gr.facebook.com/AikidoTrainingCenterVeskos/,AikidoTrainingCenterVeskos,,,,,ΑΓ. ΔΗΜΗΤΡΙΟΣ-main,,,,,Aikido Training Center,polemikes-texnes,aikido,Aikido,YES,,,NO,http://aikidotrainingcenter.gr/,,
263,810,,Πολεμικές τέχνες,Αθήνα,,,,aikido.gr,,,,https://el-gr.facebook.com/AthensAikidoSociety/,AthensAikidoSociety,,,,,ΒΥΡΩΝΑΣ-main,,,,,Athens Aikido Society,polemikes-texnes,aikido,Aikido,YES,,,NO,http://athensaikidosociety.gr,,
264,824,,Πολεμικές τέχνες,Αθήνα,,,,aikido.gr,,,,https://www.facebook.com/budolifegerakas/,budolifegerakas,,,,,ΓΕΡΑΚΑΣ,,,,,Budolife (AWA member),polemikes-texnes,aikido,Aikido,YES,,,NO,http://www.budolife.gr/,,
265,923,,Πολεμικές τέχνες,Αθήνα,,,,aikido.gr,,,,https://el-gr.facebook.com/AikidoEMP/,AikidoEMP,,,,,ΕΜΠ,,,,,ΕΜΠ Dojo,polemikes-texnes,aikido,Aikido,YES,,,NO,,,
266,1192,,Πολεμικές τέχνες,Αθήνα,,,,aikido.gr,,,,https://el-gr.facebook.com/Athens.Bushido.Center/,Athens.Bushido.Center,,,,,Κουκάκι,,,,,Athens Bushido Center (UAD member),polemikes-texnes,aikido,Aikido,YES,,,NO,http://aikidobushidocenter.gr/,,
267,1264,,Πολεμικές τέχνες,Αθήνα,,,,aikido.gr,,,,https://el-gr.facebook.com/aikibuddha/,aikibuddha,,,,,ΜΑΡΟΥΣΙ,,,,,Aikibuddha,polemikes-texnes,aikido,Aikido,YES,,,NO,,,
268,1315,"Protogenous 1, Athina 105 54, Greece",Πολεμικές τέχνες,Αθήνα,,,,aikido.gr,,,,https://el-gr.facebook.com/MonastirakiDojo/,MonastirakiDojo,,,,,Μοναστηράκι,697 211 2656,,,,Monastiraki Dojo,polemikes-texnes,aikido,Aikido,YES,,,NO,http://www.monastirakidojo.com/,,
269,1342,,Πολεμικές τέχνες,Αθήνα,,,,aikido.gr,,,,https://el-gr.facebook.com/MartialArtsFoundation/,MartialArtsFoundation,,,,,Ν. ΨΥΧΙΚΟ,,,,,Martial Arts Foundation (AWA member),polemikes-texnes,aikido,Aikido,YES,,,NO,http://www.ma-foundation.gr/,,
270,1604,,Πολεμικές τέχνες,Αθήνα,,,,aikido.gr,,,,https://el-gr.facebook.com/Masagatsudojo/,Masagatsudojo,,,,,ΠΕΤΡΟΥΠΟΛΗ,,,,,Masagatsu Dojo,polemikes-texnes,aikido,Aikido,YES,,,NO,,,
271,1654,,Πολεμικές τέχνες,Αθήνα,,,,aikido.gr,,,,https://el-gr.facebook.com/tokaidogr/,tokaidogr,,,,,Ραφήνα,,,,,Tokaido Dojo,polemikes-texnes,aikido,Aikido,YES,,,NO,http://www.tokaido.gr/,,
272,68,"Kallirrois 10, Athina 117 43, Greece",Χορός,Αθήνα,,,,google-hunter,,,,https://el-gr.facebook.com/tangart.greece/,tangart.greece,,,,,,,,,,TANGart,xoros,#REF!,,YES,,,NO,http://www.tangart.gr/,,
273,76,"& 66,, Leof. Andrea Siggrou ke Diliados, Athina 117 42, Greece",Χορός,Αθήνα,,,,google-hunter,,,,https://el-gr.facebook.com/tangoFIXathens/,tangoFIXathens,,,,,,,,,,tangoFIX,xoros,#REF!,,YES,,,NO,http://tangofix.gr/el/,,
274,81,"Leof. Kifisias 1, Athina 115 23, Greece",Χορός,Αθήνα,,,,google-hunter,,,,https://el-gr.facebook.com/cubaniadancehouse/,cubaniadancehouse,,,,,,,,,,Cubania Dancehouse,xoros,#REF!,,YES,,,NO,http://cubania.gr/,,
275,83,"5th Floor, Protogenous 1, Athina 105 54, Greece",Χορός,Αθήνα,,,,google-hunter,,,,https://www.facebook.com/danceUp.gr/events,danceUp.gr,,,,,,,,,,Dance Up,xoros,#REF!,,YES,,,NO,http://www.danceup.gr/,,
276,84,"Asklipiou 156, Athina 114 71, Greece",Χορός,Αθήνα,,,,google-hunter,,,,https://el-gr.facebook.com/PolosiAthens/,PolosiAthens,,,,,,,,,,POLOSI Pole Studio,xoros,#REF!,,YES,,,NO,http://www.polosi.gr/,,
277,85,"Sina 9, Athina 106 80, Greece",Χορός,Αθήνα,,,,google-hunter,,,,https://el-gr.facebook.com/risingstars.gr/,risingstars.gr,,,,,,,,,,Rising Stars Dance Academy,xoros,#REF!,,YES,,,NO,http://www.risingstars.gr/el/,,
278,1335,"Paleologou 25, Nea Ionia 142 33, Greece",Πολεμικές τέχνες,Αθήνα,,,,hunter.io,,,,https://el-gr.facebook.com/aikidozanshin.gr/,aikidozanshin.gr,,,,,Ν. Ιωνια,,,,,Aikido zanshin dojo,polemikes-texnes,aikido,Aikido,YES,,,NO,http://aikidozanshin.gr/,,
279,1497,Τ.Θ 67457,Αθλητισμός,Αθήνα,,,,omospondia,,,,https://el-gr.facebook.com/aemameinias/,aemameinias,,,,,ΠΑΛΛΗΝΗ,210 6004291,,,,ΑΕ ΜΕΣΟΓΕΙΩΝ ΑΜΕΙΝΙΑΣ ΠΑΛΗΝΕΥΣ,athlitismos,stivos,Στίβος,YES,,,NO,,,15302
280,769,ΜΕΓΑΛΟΥΠΟΛΕΩΣ 22,Αθλητισμός,Αθήνα,,,,omospondia,,,,https://el-gr.facebook.com/a.o.dromeasvaris/,a.o.dromeasvaris,,,,,ΒΑΡΗ,6936 115011,,,,ΑΟ ΒΑΡΗΣ ΔΡΟΜΕΑΣ,athlitismos,stivos,Στίβος,YES,,,NO,,,16672
281,600,ΚΩΝ/ΝΟΥ ΜΟΥΤΟΥΣΗ 1,Αθλητισμός,Αθήνα,,,,omospondia,,,,https://el-gr.facebook.com/aovarisanagyrous/,aovarisanagyrous,,,,,ΑΘΗΝΑ,210 9655475,,,,ΑΟ ΒΑΡΗΣ Ο ΑΝΑΓΥΡΟΥΣ,athlitismos,stivos,Στίβος,YES,,,NO,http://www.aovarisanagyrous.gr/,,16672
282,753,ΒΑΣΙΛΕΙΟΥ ΠΟΛΥΜΕΡΗ 5,Αθλητισμός,Αθήνα,,,,omospondia,,,,https://el-gr.facebook.com/AODIASOX/,AODIASOX,,,,,ΑΧΑΡΝΑΙ,6936 668800,,,,ΑΟ ΔΙΑΣ ΟΛΥΜΠ.ΧΩΡΙΟΥ,athlitismos,stivos,Στίβος,YES,,,NO,http://www.dias-stivos.gr/,,13677
283,1757,ΥΑΚΙΝΘΩΝ 1,Αθλητισμός,Αθήνα,,,,omospondia,,,,https://el-gr.facebook.com/kallistosgr,kallistosgr,,,,,ΧΑΛΑΝΔΡΙ,6944223788,,,,ΑΟ ΚΑΛΛΙΣΤΟΣ,athlitismos,stivos,Στίβος,YES,,,NO,http://kallistos-oaka.gr/,,15233
284,1738,ΠΛΑΤΕΙΑ ΚΑΛΛΙΓΑ 77,Αθλητισμός,Αθήνα,,,,omospondia,,,,https://el-gr.facebook.com/aof1956/,aof1956,,,,,ΦΙΛΟΘΕΗ,210 6819118,,,,ΑΟ ΦΙΛΟΘΕΗΣ,athlitismos,stivos,Στίβος,YES,,,NO,http://filothei.org/filothei/,,15237
285,602,ΙΩΑΝΝΟΥ ΔΡΟΣΟΠΟΥΛΟΥ 8,Αθλητισμός,Αθήνα,,,,omospondia,,,,https://www.facebook.com/atfagr/timeline,atfagr,,,,,ΑΘΗΝΑ,,,,,ΑΣ ΠΑΛΑΙΟΥ ΨΥΧΙΚΟΥ,athlitismos,stivos,Στίβος,YES,,,NO,,,11257
286,703,Αιγαίου Πελάγους 1 ,Αθλητισμός,Αθήνα,,,,omospondia,,,albatrosanoliosion@gmail.com,https://www.facebook.com/Albatrosanoliosia/,Albatrosanoliosia,,,,,Άνω Λιόσια,(211)  4104383,,,,ΑΘΛΗΤΙΚΟ ΣΩΜΑΤΕΙΟ ΚΟΛΥΜΒ.ΑΛΜΠΑΤΡΟΣ ΑΝΩ ΛΙΟΣΙΩΝ,athlitismos,kithara,Κολύμβηση,YES,,,NO,https://askaal.blogspot.gr/2017/09/albatros-swimteam.html,,
287,870,Μεταξά 39  ,Αθλητισμός,Αθήνα,,,,omospondia,,,,https://www.facebook.com/ArionGlyfada/,ArionGlyfada,,,,,Γλυφάδα,(210) 8940514,,,,ΝΑΥΤΙΚΟΣ ΑΘΛΗΤΙΚΟΣ ΟΜΙΛΟΣ ΑΡΙΩΝ ΓΛΥΦΑΔΑΣ,athlitismos,kithara,Κολύμβηση,YES,,,NO,http://www.arionglyfadas.gr/,,
288,1281,Διονύσου 122 & Μπραχαμίου,Αθλητισμός,Αθήνα,,,,omospondia,,,,https://el-gr.facebook.com/a.otritonofficial/,a.otritonofficial,,,,,Μαρούσι,(210) 6120111,,,,ΑΘΛΗΤΙΚΟΣ ΟΜΙΛΟΣ ΤΡΙΤΩΝ ΑΜΑΡΟΥΣΙΟΥ ,athlitismos,kithara,Κολύμβηση,YES,,,NO,http://www.tritonao.gr/p/homepage_5.html,,
289,1296,Υψηλάντου 7 & Α.Παναγούλη,Αθλητισμός,Αθήνα,,,,omospondia,,,aopentelikou@gmail.com,https://el-gr.facebook.com/aopentelikou/,aopentelikou,,,,,Μελίσσια,,,,,ΑΘΛΗΤΙΚΟΣ ΟΜΙΛΟΣ ΠΕΝΤΕΛΙΚΟΥ,athlitismos,kithara,Κολύμβηση,YES,,,NO,http://aopentelikou.gr/,,
290,1357,Ρ.Φεραίου & Μπουμπουλινας,Αθλητισμός,Αθήνα,,,,omospondia,,,,https://el-gr.facebook.com/PoseidonasNpsychikou/,PoseidonasNpsychikou,,,,,Ν.Ψυχικό,(210) 6728930,,,,ΠΟΣΕΙΔΩΝ Α.Ο.  Ν.ΨΥΧΙΚΟΥ,athlitismos,kithara,Κολύμβηση,YES,,,NO,https://posidonao.wordpress.com/,,
291,1774,Ηρώδου Αττικού 4   ,Αθλητισμός,Αθήνα,,,,omospondia,,, giwrgos.mousouris@gmail.com  ,https://el-gr.facebook.com/nautilosswimmingteam/,nautilosswimmingteam,,,,,Χαλάνδρι,(22950)   23557,,,,ΝΑΥΤΙΛΟΣ ΑΘΛΗΤΙΚΟΣ ΣΥΛΛΟΓΟΣ ΑΤΤΙΚΗΣ,athlitismos,kithara,Κολύμβηση,YES,,,NO,,,
292,7597,Χρ. Περραιβού 42 - Α. Τούμπα,Παιδαγωγικά + Καλιτεχνικά,Θεσσαλονικη,,7597-cover.jpg,,me,2018-06-15,,info@epistimoniko.gr,https://www.facebook.com/%CE%9C%CE%B9%CE%BA%CF%81%CF%8C-%CE%95%CF%80%CE%B9%CF%83%CF%84%CE%B7%CE%BC%CE%BF%CE%BD%CE%B9%CE%BA%CF%8C-%CE%A3%CF%87%CE%BF%CE%BB%CE%B9%CE%BA%CE%AE-%CE%9C%CE%B5%CE%BB%CE%AD%CF%84%CE%B7-%CE%BA%CE%B1%CE%B9-%CE%94%CF%81%CE%B1%CF%83%CF%84%CE%B7%CF%81%CE%B9%CF%8C%CF%84%CE%B7%CF%84%CE%B5%CF%82-521808487974776/,521808487974776,7597-logo.jpg,,,,ΑνωΤούμπα,,,7597-profile.jpg,,Μικρό Επιστημονικό - Σχολική Μελέτη και Δραστηριότητες,paidagogika-kallitexnika,#REF!,,YES,,,YES,www.mikroepistimoniko.gr,,54352
